{"type": "FeatureCollection", "features": [{"type": "Feature", "properties": {"name": "West Yorkshire"}, "geometry": {"type": "Polygon", "coordinates": [[[-1.29974, 53.74163], [-1.29647, 53.73958], [-1.29217, 53.73885], [-1.28665, 53.73537], [-1.27768, 53.7265], [-1.27196, 53.72491], [-1.26903, 53.71514], [-1.25634, 53.71175], [-1.25294, 53.71281], [-1.24818, 53.71171], [-1.23901, 53.71233], [-1.22957, 53.71489], [-1.22759, 53.71286], [-1.22801, 53.71044], [-1.22607, 53.70987], [-1.22394, 53.71065], [-1.22463, 53.71233], [-1.21981, 53.7144], [-1.21714, 53.71123], [-1.21879, 53.70929], [-1.21844, 53.70708], [-1.21564, 53.70693], [-1.21513, 53.70547], [-1.19881, 53.70071], [-1.19967, 53.69871], [-1.19899, 53.69488], [-1.24441, 53.69241], [-1.24243, 53.68047], [-1.24395, 53.67323], [-1.24878, 53.6716], [-1.25232, 53.66664], [-1.25119, 53.66257], [-1.25229, 53.66175], [-1.24696, 53.6556], [-1.25116, 53.65161], [-1.24877, 53.64961], [-1.25168, 53.64838], [-1.25521, 53.64894], [-1.25537, 53.64478], [-1.25366, 53.64118], [-1.24288, 53.6346], [-1.23806, 53.62684], [-1.23109, 53.61889], [-1.22922, 53.61887], [-1.22789, 53.61733], [-1.24818, 53.61628], [-1.2448, 53.60812], [-1.2522, 53.6071], [-1.24722, 53.60074], [-1.2577, 53.59983], [-1.25789, 53.59836], [-1.2555, 53.59888], [-1.25741, 53.59808], [-1.25301, 53.59713], [-1.25808, 53.5949], [-1.25697, 53.59284], [-1.25808, 53.59198], [-1.26422, 53.59131], [-1.26829, 53.58953], [-1.27669, 53.58995], [-1.27947, 53.58754], [-1.27781, 53.58604], [-1.28226, 53.58306], [-1.30794, 53.57539], [-1.31845, 53.57747], [-1.32212, 53.57958], [-1.33367, 53.57954], [-1.34765, 53.58419], [-1.35143, 53.58106], [-1.35386, 53.58338], [-1.35642, 53.58915], [-1.35463, 53.59203], [-1.35616, 53.59535], [-1.3599, 53.59678], [-1.36023, 53.59861], [-1.36386, 53.6017], [-1.37679, 53.60647], [-1.37895, 53.6066], [-1.38397, 53.6038], [-1.40021, 53.59864], [-1.40187, 53.60024], [-1.41281, 53.6013], [-1.41517, 53.60318], [-1.42157, 53.60321], [-1.42873, 53.60503], [-1.4292, 53.6066], [-1.43287, 53.60894], [-1.43662, 53.60657], [-1.43925, 53.60706], [-1.44681, 53.6128], [-1.45607, 53.60744], [-1.47302, 53.6008], [-1.4741, 53.60133], [-1.47929, 53.59688], [-1.48383, 53.59481], [-1.4851, 53.59695], [-1.49197, 53.59679], [-1.49286, 53.59876], [-1.49154, 53.60273], [-1.49507, 53.60317], [-1.49656, 53.59736], [-1.50148, 53.59986], [-1.5104, 53.59747], [-1.5098, 53.59699], [-1.51288, 53.59697], [-1.51632, 53.59771], [-1.51869, 53.5997], [-1.52838, 53.59696], [-1.53079, 53.59313], [-1.53629, 53.59368], [-1.53661, 53.59526], [-1.53978, 53.59654], [-1.54152, 53.59873], [-1.54472, 53.59949], [-1.54765, 53.60238], [-1.54736, 53.60319], [-1.55717, 53.6052], [-1.56047, 53.60756], [-1.56616, 53.60668], [-1.57193, 53.60859], [-1.58355, 53.60565], [-1.58645, 53.60716], [-1.58998, 53.6071], [-1.59112, 53.60678], [-1.58694, 53.60378], [-1.5852, 53.60022], [-1.58644, 53.59998], [-1.58799, 53.59351], [-1.58963, 53.59389], [-1.59109, 53.59236], [-1.59957, 53.58928], [-1.60174, 53.58775], [-1.60051, 53.5863], [-1.60248, 53.58495], [-1.60079, 53.58123], [-1.59805, 53.57976], [-1.60024, 53.57739], [-1.5962, 53.57697], [-1.60626, 53.57289], [-1.60716, 53.57154], [-1.60967, 53.57208], [-1.61304, 53.56643], [-1.61641, 53.56451], [-1.6157, 53.56303], [-1.62701, 53.56358], [-1.64892, 53.56198], [-1.65171, 53.56074], [-1.65656, 53.56054], [-1.65852, 53.55887], [-1.66087, 53.55958], [-1.66393, 53.55749], [-1.66175, 53.55581], [-1.66191, 53.55368], [-1.66953, 53.55322], [-1.6706, 53.55414], [-1.69904, 53.55379], [-1.70413, 53.56023], [-1.72322, 53.55993], [-1.7264, 53.5545], [-1.72447, 53.55221], [-1.73016, 53.54675], [-1.74158, 53.54108], [-1.75585, 53.53669], [-1.77178, 53.53384], [-1.77681, 53.53549], [-1.78544, 53.53478], [-1.7886, 53.53554], [-1.79703, 53.53388], [-1.80428, 53.537], [-1.82223, 53.52108], [-1.82715, 53.52349], [-1.83954, 53.51981], [-1.84182, 53.51989], [-1.84424, 53.52177], [-1.84569, 53.52471], [-1.85063, 53.5262], [-1.85665, 53.53], [-1.85954, 53.53363], [-1.87349, 53.54041], [-1.88269, 53.53914], [-1.88705, 53.53585], [-1.89411, 53.5336], [-1.89932, 53.5381], [-1.90962, 53.53837], [-1.91289, 53.55163], [-1.91937, 53.55086], [-1.92158, 53.55298], [-1.92445, 53.55254], [-1.9287, 53.55557], [-1.94273, 53.56163], [-1.9446, 53.56867], [-1.9464, 53.57149], [-1.95658, 53.57756], [-1.96687, 53.58], [-1.97116, 53.58414], [-1.97825, 53.58677], [-1.99588, 53.6051], [-2.00752, 53.61252], [-2.00947, 53.61676], [-2.01477, 53.61533], [-2.02304, 53.61582], [-2.02644, 53.62079], [-2.02687, 53.62423], [-2.03089, 53.62922], [-2.02903, 53.63421], [-2.03, 53.63615], [-2.03693, 53.63818], [-2.04114, 53.64083], [-2.04158, 53.6454], [-2.03968, 53.64897], [-2.04053, 53.6509], [-2.03659, 53.6553], [-2.03571, 53.65931], [-2.0371, 53.66233], [-2.05292, 53.6703], [-2.05486, 53.67565], [-2.0535, 53.67788], [-2.0489, 53.68021], [-2.05124, 53.68368], [-2.06182, 53.68283], [-2.0734, 53.67749], [-2.08317, 53.67806], [-2.08406, 53.67765], [-2.08439, 53.67295], [-2.08626, 53.67111], [-2.09291, 53.67015], [-2.09704, 53.67261], [-2.11809, 53.67123], [-2.12539, 53.67482], [-2.12768, 53.68154], [-2.13413, 53.68572], [-2.13972, 53.68279], [-2.14226, 53.67799], [-2.14464, 53.67946], [-2.14818, 53.6861], [-2.14525, 53.69228], [-2.16111, 53.69765], [-2.16258, 53.69921], [-2.16253, 53.70724], [-2.16576, 53.71018], [-2.16683, 53.7135], [-2.172, 53.71715], [-2.17134, 53.71882], [-2.16973, 53.7194], [-2.17329, 53.723], [-2.16669, 53.7278], [-2.16392, 53.73125], [-2.1562, 53.73365], [-2.15686, 53.73489], [-2.15609, 53.73531], [-2.15307, 53.73444], [-2.15215, 53.73531], [-2.14909, 53.73388], [-2.14541, 53.73604], [-2.14377, 53.73732], [-2.14483, 53.73897], [-2.14309, 53.7391], [-2.14095, 53.74179], [-2.14165, 53.74573], [-2.1313, 53.75136], [-2.12952, 53.75458], [-2.13159, 53.75805], [-2.13007, 53.76307], [-2.13046, 53.77238], [-2.13134, 53.77439], [-2.13503, 53.77683], [-2.13636, 53.78009], [-2.13048, 53.78512], [-2.12481, 53.78804], [-2.12569, 53.78964], [-2.12972, 53.79162], [-2.12785, 53.79465], [-2.12836, 53.79902], [-2.09208, 53.81408], [-2.08486, 53.81854], [-2.04692, 53.8295], [-2.04507, 53.83888], [-2.04613, 53.85013], [-2.03171, 53.85858], [-2.02163, 53.87148], [-2.01348, 53.86972], [-1.99945, 53.87205], [-1.99548, 53.86867], [-1.98765, 53.86772], [-1.98236, 53.86885], [-1.9802, 53.8711], [-1.97698, 53.87559], [-1.97612, 53.87888], [-1.97809, 53.88419], [-1.97725, 53.88772], [-1.98131, 53.89424], [-1.9811, 53.89696], [-1.9789, 53.898], [-1.97935, 53.90117], [-1.97488, 53.90116], [-1.96842, 53.90383], [-1.95256, 53.90352], [-1.95322, 53.91169], [-1.95745, 53.91357], [-1.9617, 53.91827], [-1.97394, 53.92404], [-1.97686, 53.9264], [-1.97192, 53.92997], [-1.97041, 53.92842], [-1.96589, 53.92787], [-1.96591, 53.93041], [-1.96802, 53.93181], [-1.96307, 53.93339], [-1.97052, 53.94332], [-1.96229, 53.94319], [-1.96238, 53.94531], [-1.96389, 53.94803], [-1.96505, 53.94822], [-1.96617, 53.95155], [-1.9582, 53.95394], [-1.94936, 53.953], [-1.95068, 53.95673], [-1.94399, 53.95617], [-1.94161, 53.9525], [-1.92798, 53.95044], [-1.92277, 53.95562], [-1.91912, 53.9549], [-1.90627, 53.95836], [-1.9035, 53.95826], [-1.90357, 53.95722], [-1.89884, 53.95538], [-1.89313, 53.95537], [-1.8897, 53.95926], [-1.88638, 53.96088], [-1.88545, 53.963], [-1.88224, 53.96312], [-1.87872, 53.96238], [-1.87814, 53.95898], [-1.87994, 53.95589], [-1.87627, 53.95128], [-1.87629, 53.94889], [-1.87415, 53.94507], [-1.8621, 53.94055], [-1.86298, 53.93443], [-1.86083, 53.93289], [-1.85223, 53.93096], [-1.84333, 53.93295], [-1.8362, 53.93141], [-1.84865, 53.93601], [-1.84769, 53.94076], [-1.84172, 53.93936], [-1.83012, 53.94037], [-1.8302, 53.938], [-1.82402, 53.93903], [-1.82015, 53.93804], [-1.80509, 53.93901], [-1.80286, 53.93594], [-1.79749, 53.93647], [-1.79636, 53.93089], [-1.79801, 53.9297], [-1.78244, 53.92943], [-1.77598, 53.92147], [-1.77228, 53.92087], [-1.76896, 53.92155], [-1.76782, 53.924], [-1.76542, 53.92471], [-1.7555, 53.92103], [-1.74562, 53.92299], [-1.74599, 53.91852], [-1.74216, 53.91457], [-1.72901, 53.91031], [-1.72231, 53.91194], [-1.71795, 53.90853], [-1.7187, 53.91046], [-1.71643, 53.91762], [-1.70895, 53.91802], [-1.70611, 53.91706], [-1.70708, 53.91912], [-1.69861, 53.91678], [-1.69691, 53.91767], [-1.68702, 53.91637], [-1.68917, 53.91263], [-1.68819, 53.91173], [-1.68457, 53.91197], [-1.68462, 53.91057], [-1.6705, 53.91125], [-1.66519, 53.91309], [-1.65508, 53.91247], [-1.65226, 53.911], [-1.65441, 53.90832], [-1.65202, 53.90571], [-1.64226, 53.90735], [-1.63792, 53.90553], [-1.62792, 53.90531], [-1.62053, 53.90338], [-1.61203, 53.90617], [-1.60718, 53.90897], [-1.59999, 53.90976], [-1.59889, 53.90887], [-1.60177, 53.90684], [-1.59924, 53.90397], [-1.58685, 53.90124], [-1.58518, 53.90249], [-1.58624, 53.90448], [-1.58547, 53.90714], [-1.58289, 53.90934], [-1.56773, 53.91078], [-1.56621, 53.90996], [-1.56288, 53.90391], [-1.55704, 53.90486], [-1.55122, 53.90305], [-1.54879, 53.9109], [-1.52859, 53.90868], [-1.52144, 53.91131], [-1.50772, 53.91175], [-1.49877, 53.91529], [-1.49343, 53.91513], [-1.48924, 53.91193], [-1.48602, 53.9109], [-1.46829, 53.911], [-1.46551, 53.90961], [-1.46524, 53.90697], [-1.46309, 53.906], [-1.45705, 53.90731], [-1.45092, 53.90712], [-1.44551, 53.90966], [-1.44287, 53.9129], [-1.44044, 53.91389], [-1.43643, 53.91333], [-1.4344, 53.91016], [-1.43013, 53.9138], [-1.43211, 53.92081], [-1.43146, 53.92323], [-1.43355, 53.92634], [-1.43234, 53.92743], [-1.42811, 53.92942], [-1.4067, 53.92783], [-1.41062, 53.93014], [-1.40846, 53.93494], [-1.40919, 53.93545], [-1.40065, 53.93748], [-1.3999, 53.94141], [-1.39718, 53.94252], [-1.38647, 53.94317], [-1.38168, 53.94047], [-1.37496, 53.94095], [-1.37037, 53.94303], [-1.36195, 53.94147], [-1.35855, 53.94168], [-1.35238, 53.94423], [-1.3404, 53.94587], [-1.34471, 53.93948], [-1.33953, 53.94079], [-1.33627, 53.93848], [-1.33245, 53.93974], [-1.3311, 53.93847], [-1.3211, 53.937], [-1.32058, 53.93603], [-1.30696, 53.93441], [-1.30899, 53.92408], [-1.30659, 53.92428], [-1.30527, 53.92711], [-1.30222, 53.92739], [-1.30041, 53.9294], [-1.29417, 53.92705], [-1.30424, 53.92495], [-1.3073, 53.92148], [-1.30093, 53.92235], [-1.30142, 53.92118], [-1.30033, 53.92065], [-1.2972, 53.92166], [-1.30008, 53.91909], [-1.30119, 53.91453], [-1.30201, 53.90967], [-1.30058, 53.90747], [-1.32178, 53.9029], [-1.32227, 53.90044], [-1.31814, 53.89753], [-1.31677, 53.89201], [-1.31793, 53.89183], [-1.31795, 53.88873], [-1.32002, 53.88851], [-1.3208, 53.88377], [-1.3156, 53.88166], [-1.31576, 53.87947], [-1.31969, 53.87894], [-1.31708, 53.87847], [-1.3184, 53.87746], [-1.31479, 53.86865], [-1.31178, 53.86686], [-1.3126, 53.8653], [-1.31889, 53.86227], [-1.33155, 53.86152], [-1.35297, 53.85673], [-1.34275, 53.8515], [-1.33842, 53.85173], [-1.34213, 53.84516], [-1.33234, 53.84094], [-1.32815, 53.84128], [-1.32655, 53.84041], [-1.32534, 53.83504], [-1.32974, 53.83581], [-1.33609, 53.83357], [-1.33277, 53.83277], [-1.31537, 53.82358], [-1.30967, 53.82288], [-1.31039, 53.8199], [-1.30362, 53.81652], [-1.3076, 53.81361], [-1.31243, 53.81436], [-1.31362, 53.80964], [-1.31487, 53.80954], [-1.31172, 53.79543], [-1.31282, 53.78935], [-1.31127, 53.78801], [-1.31363, 53.78607], [-1.31381, 53.78154], [-1.3116, 53.77968], [-1.31259, 53.77928], [-1.30346, 53.77491], [-1.30678, 53.77303], [-1.29812, 53.77279], [-1.29558, 53.7713], [-1.29196, 53.76718], [-1.29054, 53.76275], [-1.2927, 53.76013], [-1.29675, 53.75894], [-1.29494, 53.75545], [-1.3015, 53.75572], [-1.30556, 53.75472], [-1.30773, 53.75513], [-1.3085, 53.75648], [-1.31224, 53.75587], [-1.31208, 53.75216], [-1.31535, 53.74366], [-1.31003, 53.74452], [-1.30722, 53.74272], [-1.29974, 53.74163]]]}}, {"type": "Feature", "properties": {"name": "South Yorkshire"}, "geometry": {"type": "Polygon", "coordinates": [[[-1.11596, 53.40733], [-1.11558, 53.39717], [-1.12281, 53.39829], [-1.12921, 53.39358], [-1.13151, 53.39392], [-1.13321, 53.39239], [-1.13469, 53.38975], [-1.13131, 53.38954], [-1.13095, 53.38554], [-1.13305, 53.38158], [-1.1305, 53.37887], [-1.13054, 53.37555], [-1.13366, 53.37485], [-1.13414, 53.37321], [-1.14074, 53.372], [-1.1414, 53.37069], [-1.14492, 53.37123], [-1.14603, 53.36902], [-1.14422, 53.36736], [-1.14644, 53.36571], [-1.14642, 53.36393], [-1.14055, 53.36404], [-1.13898, 53.36137], [-1.13854, 53.35589], [-1.1491, 53.35433], [-1.16195, 53.35789], [-1.16262, 53.35672], [-1.16162, 53.35568], [-1.16242, 53.35159], [-1.15987, 53.34995], [-1.1601, 53.34892], [-1.15815, 53.34768], [-1.15684, 53.34495], [-1.14818, 53.34519], [-1.14155, 53.34678], [-1.14029, 53.34651], [-1.13872, 53.34136], [-1.14542, 53.34071], [-1.15938, 53.33349], [-1.16087, 53.3311], [-1.16388, 53.32926], [-1.17511, 53.32566], [-1.17531, 53.32449], [-1.17204, 53.32274], [-1.1747, 53.32263], [-1.17448, 53.32137], [-1.19242, 53.31897], [-1.19437, 53.31484], [-1.19721, 53.31465], [-1.20303, 53.30721], [-1.20211, 53.30604], [-1.20324, 53.3042], [-1.2125, 53.30543], [-1.21988, 53.30406], [-1.23069, 53.30854], [-1.23682, 53.30632], [-1.24333, 53.30163], [-1.24788, 53.30267], [-1.25429, 53.30173], [-1.26781, 53.3058], [-1.26964, 53.30908], [-1.2736, 53.31042], [-1.27643, 53.30919], [-1.28201, 53.30944], [-1.28531, 53.31159], [-1.29568, 53.31502], [-1.29473, 53.31525], [-1.29516, 53.32177], [-1.29011, 53.32312], [-1.28859, 53.32621], [-1.29907, 53.33251], [-1.30597, 53.33375], [-1.3123, 53.33415], [-1.3115, 53.33209], [-1.30879, 53.33215], [-1.31051, 53.33189], [-1.31144, 53.33023], [-1.31054, 53.32933], [-1.31301, 53.32934], [-1.31496, 53.3265], [-1.32161, 53.32548], [-1.3223, 53.32751], [-1.32476, 53.32707], [-1.32467, 53.32879], [-1.3283, 53.32896], [-1.32816, 53.32679], [-1.33242, 53.32348], [-1.33231, 53.32204], [-1.33456, 53.321], [-1.33767, 53.31585], [-1.34026, 53.31552], [-1.34163, 53.31606], [-1.34089, 53.31697], [-1.34724, 53.31885], [-1.35347, 53.31909], [-1.36178, 53.31847], [-1.36295, 53.31755], [-1.36192, 53.31575], [-1.36262, 53.31502], [-1.37413, 53.31723], [-1.38674, 53.31761], [-1.38993, 53.31849], [-1.39201, 53.32263], [-1.39043, 53.32606], [-1.39073, 53.33162], [-1.38657, 53.33487], [-1.38882, 53.33643], [-1.3907, 53.33596], [-1.4064, 53.33938], [-1.40875, 53.34195], [-1.41103, 53.34197], [-1.41239, 53.34108], [-1.41259, 53.33879], [-1.42087, 53.33455], [-1.42349, 53.33592], [-1.43361, 53.33767], [-1.44087, 53.33635], [-1.44214, 53.33737], [-1.45081, 53.33155], [-1.45988, 53.33067], [-1.45664, 53.32937], [-1.45828, 53.32871], [-1.45994, 53.32969], [-1.4617, 53.32843], [-1.45431, 53.32426], [-1.45583, 53.32346], [-1.45522, 53.32185], [-1.45728, 53.32175], [-1.45726, 53.3207], [-1.45974, 53.31972], [-1.46322, 53.31977], [-1.46787, 53.31714], [-1.4796, 53.31931], [-1.50072, 53.31588], [-1.50213, 53.31756], [-1.51049, 53.31603], [-1.51734, 53.31219], [-1.5212, 53.31284], [-1.52163, 53.31172], [-1.52579, 53.31208], [-1.52619, 53.31039], [-1.53122, 53.31063], [-1.53341, 53.30763], [-1.53312, 53.30621], [-1.53677, 53.30473], [-1.54166, 53.30465], [-1.54908, 53.30697], [-1.55846, 53.3053], [-1.56183, 53.30658], [-1.55912, 53.30972], [-1.55575, 53.31153], [-1.55849, 53.3137], [-1.56018, 53.31368], [-1.56137, 53.3158], [-1.56409, 53.31362], [-1.5675, 53.31474], [-1.58054, 53.31172], [-1.58124, 53.31429], [-1.58301, 53.31571], [-1.57893, 53.31668], [-1.5849, 53.32157], [-1.5869, 53.32139], [-1.58677, 53.31991], [-1.59038, 53.31828], [-1.59909, 53.3113], [-1.5992, 53.3146], [-1.60153, 53.31819], [-1.6092, 53.32265], [-1.6255, 53.31641], [-1.62823, 53.31638], [-1.63273, 53.32082], [-1.62684, 53.32535], [-1.62792, 53.32583], [-1.62727, 53.32853], [-1.62209, 53.33166], [-1.62211, 53.33366], [-1.61437, 53.33882], [-1.61214, 53.3416], [-1.6123, 53.3432], [-1.60158, 53.34259], [-1.59055, 53.3459], [-1.62561, 53.35204], [-1.63059, 53.35614], [-1.65788, 53.36416], [-1.66395, 53.36688], [-1.66329, 53.37423], [-1.65353, 53.38484], [-1.65382, 53.39189], [-1.65472, 53.39301], [-1.66809, 53.39305], [-1.68183, 53.40176], [-1.69452, 53.40114], [-1.70497, 53.40504], [-1.703, 53.41065], [-1.70323, 53.41371], [-1.70853, 53.41732], [-1.71832, 53.41941], [-1.72335, 53.4189], [-1.72995, 53.41597], [-1.73508, 53.41968], [-1.73976, 53.42097], [-1.74672, 53.42615], [-1.74412, 53.42956], [-1.74427, 53.43128], [-1.74856, 53.43559], [-1.74973, 53.4391], [-1.74367, 53.445], [-1.74428, 53.44843], [-1.74657, 53.45126], [-1.74666, 53.45549], [-1.74817, 53.45731], [-1.74526, 53.46198], [-1.74783, 53.46405], [-1.75215, 53.46491], [-1.7594, 53.46354], [-1.76844, 53.46475], [-1.7705, 53.46692], [-1.7762, 53.46831], [-1.77804, 53.47044], [-1.77906, 53.4742], [-1.79111, 53.47577], [-1.80147, 53.48098], [-1.80186, 53.48653], [-1.80025, 53.48809], [-1.80026, 53.49334], [-1.79585, 53.49427], [-1.795, 53.4959], [-1.79629, 53.50314], [-1.79903, 53.50465], [-1.8104, 53.50632], [-1.80078, 53.51136], [-1.81952, 53.51341], [-1.82079, 53.51849], [-1.82259, 53.52], [-1.80428, 53.537], [-1.79703, 53.53388], [-1.7886, 53.53554], [-1.78544, 53.53478], [-1.77681, 53.53549], [-1.77178, 53.53384], [-1.75585, 53.53669], [-1.74158, 53.54108], [-1.73016, 53.54675], [-1.72447, 53.55221], [-1.7264, 53.5545], [-1.72322, 53.55993], [-1.70413, 53.56023], [-1.69904, 53.55379], [-1.6706, 53.55414], [-1.66953, 53.55322], [-1.66191, 53.55368], [-1.66175, 53.55581], [-1.66393, 53.55749], [-1.66087, 53.55958], [-1.65852, 53.55887], [-1.65656, 53.56054], [-1.65171, 53.56074], [-1.64892, 53.56198], [-1.62701, 53.56358], [-1.6157, 53.56303], [-1.61641, 53.56451], [-1.61304, 53.56643], [-1.60967, 53.57208], [-1.60716, 53.57154], [-1.60626, 53.57289], [-1.5962, 53.57697], [-1.60024, 53.57739], [-1.59805, 53.57976], [-1.60079, 53.58123], [-1.60248, 53.58495], [-1.60051, 53.5863], [-1.60174, 53.58775], [-1.59957, 53.58928], [-1.59109, 53.59236], [-1.58963, 53.59389], [-1.58799, 53.59351], [-1.58644, 53.59998], [-1.5852, 53.60022], [-1.58694, 53.60378], [-1.59112, 53.60678], [-1.58998, 53.6071], [-1.58645, 53.60716], [-1.58355, 53.60565], [-1.57193, 53.60859], [-1.56616, 53.60668], [-1.56047, 53.60756], [-1.55717, 53.6052], [-1.54736, 53.60319], [-1.54765, 53.60238], [-1.54472, 53.59949], [-1.54152, 53.59873], [-1.53978, 53.59654], [-1.53661, 53.59526], [-1.53629, 53.59368], [-1.53079, 53.59313], [-1.52838, 53.59696], [-1.51869, 53.5997], [-1.51632, 53.59771], [-1.51288, 53.59697], [-1.5098, 53.59699], [-1.5104, 53.59747], [-1.50148, 53.59986], [-1.49656, 53.59736], [-1.49507, 53.60317], [-1.49154, 53.60273], [-1.49286, 53.59876], [-1.49197, 53.59679], [-1.4851, 53.59695], [-1.48383, 53.59481], [-1.47929, 53.59688], [-1.4741, 53.60133], [-1.47302, 53.6008], [-1.45607, 53.60744], [-1.44681, 53.6128], [-1.43925, 53.60706], [-1.43662, 53.60657], [-1.43287, 53.60894], [-1.4292, 53.6066], [-1.42873, 53.60503], [-1.42157, 53.60321], [-1.41517, 53.60318], [-1.41281, 53.6013], [-1.40187, 53.60024], [-1.40021, 53.59864], [-1.38397, 53.6038], [-1.37895, 53.6066], [-1.37679, 53.60647], [-1.36386, 53.6017], [-1.36023, 53.59861], [-1.3599, 53.59678], [-1.35616, 53.59535], [-1.35463, 53.59203], [-1.35642, 53.58915], [-1.35386, 53.58338], [-1.35143, 53.58106], [-1.34765, 53.58419], [-1.33367, 53.57954], [-1.32212, 53.57958], [-1.31845, 53.57747], [-1.30794, 53.57539], [-1.28226, 53.58306], [-1.27781, 53.58604], [-1.27947, 53.58754], [-1.27669, 53.58995], [-1.26829, 53.58953], [-1.26422, 53.59131], [-1.25808, 53.59198], [-1.25697, 53.59284], [-1.25808, 53.5949], [-1.25301, 53.59713], [-1.25741, 53.59808], [-1.2555, 53.59888], [-1.25789, 53.59836], [-1.2577, 53.59983], [-1.24722, 53.60074], [-1.2522, 53.6071], [-1.2448, 53.60812], [-1.24818, 53.61628], [-1.22906, 53.61686], [-1.22789, 53.61733], [-1.23284, 53.62109], [-1.21747, 53.62421], [-1.21736, 53.62909], [-1.21963, 53.63447], [-1.21768, 53.64018], [-1.2163, 53.64], [-1.21564, 53.64196], [-1.21089, 53.64094], [-1.20982, 53.64315], [-1.20532, 53.64259], [-1.19846, 53.64023], [-1.19452, 53.63809], [-1.19369, 53.63637], [-1.19031, 53.6359], [-1.17445, 53.63816], [-1.16777, 53.64079], [-1.16138, 53.64176], [-1.15879, 53.64341], [-1.15554, 53.6432], [-1.15229, 53.64276], [-1.14966, 53.6388], [-1.14574, 53.63853], [-1.14351, 53.63633], [-1.14012, 53.6356], [-1.1389, 53.63345], [-1.1354, 53.63271], [-1.12887, 53.63493], [-1.12707, 53.63854], [-1.12899, 53.64297], [-1.125, 53.64396], [-1.12174, 53.6467], [-1.11605, 53.64578], [-1.09512, 53.64997], [-1.09046, 53.64985], [-1.08481, 53.65171], [-1.07117, 53.64892], [-1.06607, 53.64887], [-1.05327, 53.65152], [-1.05048, 53.65493], [-1.04634, 53.6567], [-1.03722, 53.65448], [-1.02936, 53.65495], [-1.01899, 53.65796], [-0.99881, 53.65867], [-0.991, 53.66117], [-0.99061, 53.65855], [-0.99256, 53.65559], [-0.9905, 53.6529], [-0.99142, 53.65078], [-0.98918, 53.64766], [-0.98924, 53.64514], [-0.98456, 53.63766], [-0.98448, 53.63342], [-0.98189, 53.62408], [-0.98326, 53.62078], [-0.98684, 53.61704], [-0.99562, 53.61214], [-1.0287, 53.60431], [-1.03315, 53.60176], [-1.04014, 53.60211], [-1.05219, 53.60163], [-1.06472, 53.59625], [-1.07159, 53.59464], [-1.07564, 53.59586], [-1.08717, 53.59475], [-1.09118, 53.59213], [-1.09106, 53.59077], [-1.08833, 53.58823], [-1.08634, 53.58712], [-1.08536, 53.58517], [-1.08297, 53.58344], [-1.08135, 53.57187], [-1.08325, 53.56896], [-1.08167, 53.57061], [-1.08276, 53.56717], [-1.08833, 53.56544], [-1.09145, 53.56357], [-1.09145, 53.56166], [-1.09035, 53.55849], [-1.09294, 53.55354], [-1.09014, 53.55809], [-1.09119, 53.56343], [-1.08272, 53.56671], [-1.08095, 53.57163], [-1.08265, 53.58349], [-1.08606, 53.58721], [-1.09035, 53.59016], [-1.09106, 53.59152], [-1.08729, 53.59436], [-1.07574, 53.59551], [-1.07199, 53.5943], [-1.06354, 53.59635], [-1.05206, 53.60138], [-1.03312, 53.60151], [-1.02812, 53.60419], [-0.99583, 53.61181], [-0.98642, 53.61693], [-0.98281, 53.62083], [-0.98143, 53.62388], [-0.98415, 53.63797], [-0.9885, 53.64473], [-0.98867, 53.64784], [-0.99074, 53.65045], [-0.98989, 53.65289], [-0.99192, 53.65569], [-0.98998, 53.65896], [-0.94684, 53.65912], [-0.86533, 53.63769], [-0.88699, 53.60967], [-0.88705, 53.60081], [-0.89792, 53.58326], [-0.89623, 53.5829], [-0.90111, 53.5687], [-0.89099, 53.56654], [-0.89186, 53.56529], [-0.89431, 53.56556], [-0.9003, 53.55564], [-0.90126, 53.54789], [-0.89983, 53.54446], [-0.89559, 53.54204], [-0.89226, 53.53757], [-0.89807, 53.53274], [-0.90819, 53.53365], [-0.92526, 53.53258], [-0.93433, 53.53002], [-0.94371, 53.53062], [-0.94654, 53.52732], [-0.95001, 53.51364], [-0.93209, 53.51065], [-0.93536, 53.5027], [-0.95326, 53.4844], [-0.97687, 53.47516], [-0.98162, 53.4747], [-0.98598, 53.47165], [-0.9833, 53.46802], [-0.98555, 53.46133], [-0.99364, 53.45294], [-0.99118, 53.4517], [-0.99431, 53.44892], [-0.99752, 53.44363], [-0.99848, 53.43882], [-0.99567, 53.43691], [-1.00509, 53.43378], [-1.01246, 53.43278], [-1.01435, 53.42628], [-1.02243, 53.42629], [-1.02317, 53.42449], [-1.03051, 53.42518], [-1.02884, 53.42927], [-1.03095, 53.43096], [-1.04026, 53.42974], [-1.05577, 53.42529], [-1.06786, 53.4277], [-1.07327, 53.42804], [-1.08044, 53.42685], [-1.07898, 53.42354], [-1.0812, 53.42257], [-1.08705, 53.42552], [-1.09874, 53.41872], [-1.10823, 53.40586], [-1.11596, 53.40733]]]}}, {"type": "Feature", "properties": {"name": "East Riding of Yorkshire"}, "geometry": {"type": "MultiPolygon", "coordinates": [[[[-0.726, 53.70406], [-0.70493, 53.70079], [-0.69849, 53.69763], [-0.69989, 53.69614], [-0.70559, 53.69677], [-0.70997, 53.69584], [-0.70562, 53.6966], [-0.69972, 53.69567], [-0.70073, 53.69001], [-0.69995, 53.68698], [-0.70144, 53.68637], [-0.69978, 53.68675], [-0.69849, 53.68459], [-0.70462, 53.68113], [-0.70245, 53.67747], [-0.71384, 53.67742], [-0.71769, 53.67822], [-0.71799, 53.67997], [-0.72176, 53.67934], [-0.72362, 53.67789], [-0.7227, 53.67658], [-0.72319, 53.67371], [-0.73054, 53.67346], [-0.7466, 53.66959], [-0.74621, 53.66889], [-0.75897, 53.66435], [-0.75324, 53.66268], [-0.77449, 53.65619], [-0.77446, 53.65787], [-0.76989, 53.66162], [-0.77213, 53.66405], [-0.7783, 53.66142], [-0.78874, 53.65919], [-0.80154, 53.65271], [-0.8058, 53.64634], [-0.81417, 53.64339], [-0.82009, 53.64514], [-0.82088, 53.64385], [-0.82915, 53.64322], [-0.82962, 53.64188], [-0.83352, 53.64077], [-0.84121, 53.63549], [-0.84826, 53.63302], [-0.94684, 53.65912], [-0.98998, 53.65896], [-0.99101, 53.67356], [-0.94608, 53.67932], [-0.88545, 53.69436], [-0.86674, 53.69623], [-0.86043, 53.68909], [-0.86134, 53.68884], [-0.85642, 53.68575], [-0.85033, 53.68476], [-0.84307, 53.6867], [-0.82509, 53.70016], [-0.81188, 53.70433], [-0.80594, 53.70437], [-0.79901, 53.7029], [-0.78436, 53.69603], [-0.77504, 53.69468], [-0.76686, 53.69598], [-0.74625, 53.7033], [-0.726, 53.70406]]], [[[-0.84404, 53.7133], [-0.84493, 53.71018], [-0.84718, 53.70857], [-0.86408, 53.70378], [-0.86692, 53.70136], [-0.86693, 53.69779], [-0.86776, 53.69746], [-0.86638, 53.69663], [-0.86959, 53.69706], [-0.88591, 53.69467], [-0.94611, 53.67982], [-0.99161, 53.67397], [-0.991, 53.66117], [-0.99881, 53.65867], [-1.01899, 53.65796], [-1.02936, 53.65495], [-1.03722, 53.65448], [-1.04449, 53.65674], [-1.04866, 53.65604], [-1.051, 53.65754], [-1.05754, 53.65761], [-1.06023, 53.65925], [-1.06187, 53.65919], [-1.06328, 53.65746], [-1.0679, 53.65726], [-1.07119, 53.65789], [-1.07106, 53.66], [-1.0788, 53.66044], [-1.08564, 53.66237], [-1.08877, 53.66446], [-1.08701, 53.66658], [-1.09152, 53.66866], [-1.10357, 53.66954], [-1.10199, 53.67438], [-1.09748, 53.67527], [-1.08732, 53.6833], [-1.08106, 53.68457], [-1.08068, 53.68526], [-1.08501, 53.68694], [-1.07635, 53.69673], [-1.07816, 53.69774], [-1.07493, 53.70398], [-1.0697, 53.70286], [-1.06231, 53.70672], [-1.05421, 53.70135], [-1.05394, 53.69679], [-1.04597, 53.6985], [-1.03902, 53.69367], [-1.03393, 53.69626], [-1.02212, 53.69786], [-1.01154, 53.69677], [-1.00683, 53.69509], [-1.00095, 53.69867], [-0.99454, 53.69722], [-0.98058, 53.69669], [-0.97962, 53.69744], [-0.98201, 53.69911], [-0.98308, 53.70274], [-0.98042, 53.70481], [-0.96795, 53.70652], [-0.96667, 53.70453], [-0.97031, 53.7031], [-0.97041, 53.70215], [-0.96665, 53.70043], [-0.96253, 53.70053], [-0.96188, 53.70351], [-0.95727, 53.70497], [-0.96089, 53.70777], [-0.95855, 53.71002], [-0.95848, 53.71379], [-0.95736, 53.71469], [-0.94421, 53.71232], [-0.93464, 53.71619], [-0.92361, 53.71844], [-0.91275, 53.71841], [-0.90544, 53.71667], [-0.90299, 53.71955], [-0.90574, 53.72634], [-0.90514, 53.72707], [-0.88797, 53.72649], [-0.87784, 53.72278], [-0.86074, 53.72214], [-0.85759, 53.72433], [-0.85789, 53.72902], [-0.85636, 53.73069], [-0.85023, 53.72888], [-0.84698, 53.7253], [-0.84485, 53.71977], [-0.84404, 53.7133]]], [[[-0.85931, 53.72528], [-0.8607, 53.72374], [-0.86431, 53.7235], [-0.86173, 53.72624], [-0.85931, 53.72528]]], [[[-0.25591, 53.73626], [-0.25996, 53.73609], [-0.27325, 53.74009], [-0.27324, 53.74089], [-0.29719, 53.74285], [-0.31764, 53.74047], [-0.31928, 53.74114], [-0.32005, 53.74001], [-0.32098, 53.74094], [-0.32045, 53.73993], [-0.33128, 53.7383], [-0.32838, 53.74414], [-0.32695, 53.74461], [-0.33272, 53.75146], [-0.32921, 53.75282], [-0.32853, 53.75374], [-0.32973, 53.75642], [-0.33105, 53.75689], [-0.33374, 53.75713], [-0.33616, 53.75969], [-0.33276, 53.7641], [-0.32852, 53.76434], [-0.3278, 53.76496], [-0.328, 53.76605], [-0.33044, 53.76947], [-0.33215, 53.77073], [-0.33335, 53.77094], [-0.33642, 53.77049], [-0.33904, 53.77078], [-0.34177, 53.77258], [-0.34124, 53.77454], [-0.3418, 53.77526], [-0.34367, 53.77563], [-0.34707, 53.7752], [-0.34811, 53.77556], [-0.34928, 53.77855], [-0.3473, 53.78056], [-0.34803, 53.78184], [-0.35167, 53.78362], [-0.34796, 53.7856], [-0.34763, 53.78637], [-0.34805, 53.7873], [-0.3507, 53.78865], [-0.35468, 53.7894], [-0.35793, 53.79115], [-0.35953, 53.79233], [-0.35883, 53.79389], [-0.35901, 53.79451], [-0.3605, 53.79529], [-0.36334, 53.79578], [-0.36494, 53.79846], [-0.36518, 53.80335], [-0.35674, 53.80558], [-0.35492, 53.80675], [-0.35366, 53.8085], [-0.35351, 53.81155], [-0.35415, 53.81441], [-0.35797, 53.81743], [-0.36389, 53.81868], [-0.36896, 53.82436], [-0.37001, 53.82474], [-0.37694, 53.82516], [-0.38135, 53.8273], [-0.38028, 53.83156], [-0.38093, 53.83477], [-0.3846, 53.83903], [-0.38619, 53.83969], [-0.39419, 53.83991], [-0.39958, 53.84364], [-0.39924, 53.84571], [-0.39613, 53.84826], [-0.39301, 53.85387], [-0.39299, 53.85566], [-0.39985, 53.86649], [-0.39824, 53.87368], [-0.39916, 53.8778], [-0.40174, 53.87863], [-0.40349, 53.88023], [-0.40773, 53.88193], [-0.40705, 53.88456], [-0.40325, 53.88389], [-0.40085, 53.88407], [-0.40104, 53.88307], [-0.40039, 53.88416], [-0.39741, 53.8843], [-0.39499, 53.8853], [-0.3941, 53.88811], [-0.3943, 53.88982], [-0.39602, 53.89197], [-0.39544, 53.89607], [-0.39366, 53.8985], [-0.38254, 53.90146], [-0.38142, 53.90391], [-0.38421, 53.90606], [-0.38424, 53.90913], [-0.38018, 53.9119], [-0.37606, 53.91343], [-0.37107, 53.91207], [-0.36693, 53.91331], [-0.36648, 53.91386], [-0.3681, 53.91782], [-0.3659, 53.9212], [-0.36382, 53.92204], [-0.3615, 53.9235], [-0.35817, 53.92434], [-0.35628, 53.92547], [-0.35603, 53.92691], [-0.35842, 53.93019], [-0.35729, 53.93164], [-0.35648, 53.93383], [-0.3588, 53.93023], [-0.35654, 53.92559], [-0.36255, 53.9233], [-0.36634, 53.92122], [-0.36867, 53.9177], [-0.36697, 53.91355], [-0.37068, 53.91226], [-0.3761, 53.91368], [-0.38028, 53.91211], [-0.38238, 53.91094], [-0.38762, 53.91223], [-0.38867, 53.9141], [-0.39342, 53.91899], [-0.41181, 53.92481], [-0.4215, 53.92735], [-0.39345, 53.91885], [-0.38771, 53.91214], [-0.38263, 53.91077], [-0.38484, 53.90928], [-0.38452, 53.90599], [-0.38171, 53.90377], [-0.38259, 53.90183], [-0.39244, 53.89948], [-0.39393, 53.89854], [-0.39585, 53.89578], [-0.39754, 53.89627], [-0.39939, 53.89633], [-0.40372, 53.89561], [-0.40572, 53.89649], [-0.4092, 53.89728], [-0.41002, 53.89805], [-0.41763, 53.9022], [-0.43485, 53.9067], [-0.43653, 53.9059], [-0.4348, 53.90659], [-0.41763, 53.90209], [-0.40922, 53.89714], [-0.40372, 53.89549], [-0.39965, 53.89623], [-0.39586, 53.89555], [-0.39631, 53.89205], [-0.39437, 53.88793], [-0.39541, 53.88523], [-0.40271, 53.88404], [-0.40729, 53.88468], [-0.40809, 53.88213], [-0.407, 53.88105], [-0.40766, 53.8808], [-0.41394, 53.88265], [-0.41222, 53.8817], [-0.40766, 53.8807], [-0.40687, 53.88098], [-0.40363, 53.88009], [-0.40187, 53.87848], [-0.39943, 53.87775], [-0.39852, 53.87372], [-0.40009, 53.86647], [-0.3935, 53.85635], [-0.39319, 53.8542], [-0.39629, 53.84843], [-0.3997, 53.84556], [-0.39972, 53.84338], [-0.3947, 53.83978], [-0.38519, 53.83915], [-0.38118, 53.83464], [-0.38055, 53.8316], [-0.38172, 53.82728], [-0.37688, 53.82495], [-0.36916, 53.82428], [-0.36402, 53.81853], [-0.35846, 53.81748], [-0.35453, 53.81452], [-0.35376, 53.80898], [-0.35509, 53.80695], [-0.36566, 53.80334], [-0.36534, 53.79861], [-0.36464, 53.79708], [-0.36337, 53.79544], [-0.35934, 53.79447], [-0.35965, 53.79202], [-0.35643, 53.78995], [-0.3481, 53.78695], [-0.3484, 53.78553], [-0.35195, 53.78356], [-0.34762, 53.78103], [-0.34965, 53.77842], [-0.3484, 53.77543], [-0.34698, 53.77497], [-0.34221, 53.77522], [-0.3422, 53.77274], [-0.34066, 53.77123], [-0.33778, 53.77033], [-0.3324, 53.77055], [-0.32834, 53.76599], [-0.32822, 53.76492], [-0.33235, 53.7645], [-0.3335, 53.76395], [-0.33653, 53.76], [-0.33413, 53.75697], [-0.33006, 53.75629], [-0.32923, 53.75309], [-0.33319, 53.75175], [-0.32979, 53.74733], [-0.32885, 53.74424], [-0.33263, 53.73827], [-0.34083, 53.73661], [-0.33945, 53.73593], [-0.36593, 53.7286], [-0.39618, 53.72219], [-0.3967, 53.72317], [-0.40385, 53.72264], [-0.43198, 53.71681], [-0.43388, 53.71717], [-0.43412, 53.71897], [-0.43417, 53.71618], [-0.44745, 53.71385], [-0.45892, 53.7162], [-0.47338, 53.71726], [-0.48674, 53.71646], [-0.54255, 53.70842], [-0.55655, 53.71035], [-0.5683, 53.71502], [-0.56862, 53.71654], [-0.56952, 53.71568], [-0.57128, 53.71655], [-0.58279, 53.72399], [-0.58224, 53.72609], [-0.58325, 53.72655], [-0.58535, 53.72716], [-0.58372, 53.72547], [-0.5895, 53.72799], [-0.60166, 53.72988], [-0.61664, 53.73116], [-0.62554, 53.73137], [-0.62748, 53.73128], [-0.62845, 53.73087], [-0.62787, 53.73197], [-0.63021, 53.73397], [-0.62946, 53.7327], [-0.63113, 53.73274], [-0.62812, 53.73202], [-0.62877, 53.73094], [-0.63724, 53.72887], [-0.63471, 53.72902], [-0.62743, 53.73112], [-0.61839, 53.73057], [-0.67299, 53.72132], [-0.67632, 53.7196], [-0.68054, 53.71372], [-0.68727, 53.70786], [-0.69597, 53.70434], [-0.70225, 53.70385], [-0.70851, 53.70499], [-0.70857, 53.70616], [-0.70977, 53.7053], [-0.73262, 53.70772], [-0.74259, 53.70696], [-0.75698, 53.70309], [-0.7572, 53.70409], [-0.75782, 53.70282], [-0.76535, 53.70115], [-0.77119, 53.6985], [-0.77905, 53.69745], [-0.78695, 53.70002], [-0.79421, 53.70421], [-0.79409, 53.7052], [-0.79488, 53.7046], [-0.80967, 53.70718], [-0.82496, 53.70354], [-0.83187, 53.69941], [-0.84356, 53.69001], [-0.85169, 53.68643], [-0.85421, 53.68719], [-0.85909, 53.69149], [-0.86272, 53.69625], [-0.86377, 53.70056], [-0.86131, 53.7026], [-0.84799, 53.70545], [-0.84177, 53.70947], [-0.84015, 53.7158], [-0.84173, 53.7235], [-0.84884, 53.73087], [-0.85281, 53.73212], [-0.85825, 53.73209], [-0.86261, 53.73045], [-0.87227, 53.72399], [-0.88715, 53.72826], [-0.90961, 53.72792], [-0.91097, 53.72843], [-0.90901, 53.73162], [-0.9112, 53.73337], [-0.93587, 53.73248], [-0.94533, 53.73384], [-0.9527, 53.73651], [-0.96106, 53.7367], [-0.96091, 53.74291], [-0.96255, 53.74672], [-0.96605, 53.74867], [-0.9733, 53.75017], [-0.96419, 53.75061], [-0.95157, 53.75375], [-0.93974, 53.75813], [-0.93008, 53.76307], [-0.92836, 53.76531], [-0.92943, 53.77376], [-0.93315, 53.77474], [-0.93662, 53.77933], [-0.93427, 53.78467], [-0.93349, 53.78996], [-0.93117, 53.79129], [-0.92804, 53.79707], [-0.93107, 53.79825], [-0.93447, 53.80184], [-0.93288, 53.80382], [-0.92993, 53.805], [-0.92759, 53.80986], [-0.92008, 53.81596], [-0.92234, 53.817], [-0.92422, 53.81604], [-0.92892, 53.82045], [-0.9332, 53.82067], [-0.94061, 53.8235], [-0.9403, 53.83268], [-0.94349, 53.83527], [-0.94702, 53.84363], [-0.94498, 53.8481], [-0.94631, 53.85116], [-0.94199, 53.85479], [-0.94813, 53.8621], [-0.94613, 53.86475], [-0.93905, 53.86772], [-0.94074, 53.87405], [-0.93817, 53.87573], [-0.92975, 53.87652], [-0.92268, 53.87945], [-0.92465, 53.88269], [-0.92293, 53.88535], [-0.92359, 53.88771], [-0.91967, 53.88928], [-0.92084, 53.8906], [-0.93413, 53.89024], [-0.94951, 53.89383], [-0.94028, 53.89862], [-0.93997, 53.90258], [-0.94104, 53.90414], [-0.93831, 53.90787], [-0.93204, 53.90874], [-0.93218, 53.91203], [-0.93482, 53.91357], [-0.93081, 53.91402], [-0.93167, 53.91735], [-0.92779, 53.91829], [-0.92835, 53.92044], [-0.92759, 53.92092], [-0.92336, 53.92032], [-0.92167, 53.92121], [-0.92324, 53.92524], [-0.92883, 53.93], [-0.92341, 53.93499], [-0.92618, 53.93694], [-0.92507, 53.94075], [-0.92785, 53.94189], [-0.92845, 53.94342], [-0.92652, 53.94466], [-0.92709, 53.94654], [-0.92495, 53.94874], [-0.92765, 53.95265], [-0.92215, 53.95663], [-0.9212, 53.9604], [-0.92386, 53.96335], [-0.93131, 53.96585], [-0.9341, 53.96865], [-0.93378, 53.97049], [-0.92877, 53.97608], [-0.92704, 53.9805], [-0.92782, 53.98401], [-0.92363, 53.98837], [-0.92031, 53.99008], [-0.92529, 53.9915], [-0.91524, 53.99313], [-0.91324, 53.99204], [-0.91193, 53.99288], [-0.91189, 53.99543], [-0.90748, 53.99753], [-0.89995, 53.99971], [-0.89741, 53.99851], [-0.89353, 53.99975], [-0.89087, 54.00308], [-0.88855, 54.0095], [-0.87766, 54.01354], [-0.87723, 54.01491], [-0.87844, 54.01717], [-0.86351, 54.01734], [-0.85972, 54.01636], [-0.84849, 54.01866], [-0.84315, 54.02168], [-0.82036, 54.02085], [-0.79898, 54.02407], [-0.80029, 54.01997], [-0.79918, 54.01904], [-0.77883, 54.02353], [-0.76633, 54.02367], [-0.73425, 54.03024], [-0.73058, 54.02171], [-0.73048, 54.01268], [-0.71969, 54.0123], [-0.71805, 54.01009], [-0.71074, 54.01115], [-0.70865, 54.00805], [-0.70489, 54.00605], [-0.68367, 54.00875], [-0.68158, 54.01122], [-0.68306, 54.01245], [-0.67841, 54.01822], [-0.68381, 54.02098], [-0.68414, 54.02263], [-0.68847, 54.02399], [-0.68721, 54.02606], [-0.68729, 54.03043], [-0.68259, 54.03411], [-0.68068, 54.03365], [-0.68046, 54.03589], [-0.67849, 54.03723], [-0.67424, 54.03816], [-0.65947, 54.03715], [-0.65631, 54.04062], [-0.65801, 54.04363], [-0.65573, 54.04421], [-0.65629, 54.04543], [-0.65364, 54.04594], [-0.64464, 54.05509], [-0.66031, 54.06308], [-0.6481, 54.06599], [-0.62745, 54.06881], [-0.62774, 54.07018], [-0.61551, 54.07048], [-0.60969, 54.07325], [-0.60585, 54.07778], [-0.59409, 54.0842], [-0.59099, 54.08704], [-0.56645, 54.09029], [-0.56313, 54.09398], [-0.55062, 54.09267], [-0.54551, 54.09104], [-0.5418, 54.09151], [-0.53402, 54.08716], [-0.52792, 54.08932], [-0.5246, 54.08546], [-0.50287, 54.09408], [-0.48984, 54.10087], [-0.46593, 54.10761], [-0.46831, 54.11123], [-0.45867, 54.11402], [-0.45943, 54.11531], [-0.45434, 54.11674], [-0.45469, 54.11995], [-0.45369, 54.12069], [-0.45853, 54.12596], [-0.42708, 54.13742], [-0.43265, 54.1575], [-0.43092, 54.15813], [-0.4331, 54.1606], [-0.43315, 54.16405], [-0.42291, 54.1663], [-0.42454, 54.16956], [-0.42263, 54.17008], [-0.42252, 54.17125], [-0.41809, 54.1712], [-0.41824, 54.17405], [-0.40826, 54.17582], [-0.40406, 54.17583], [-0.40324, 54.1747], [-0.39073, 54.1765], [-0.3807, 54.17034], [-0.37451, 54.16255], [-0.3733, 54.15626], [-0.37499, 54.15621], [-0.37491, 54.15409], [-0.36002, 54.1531], [-0.35526, 54.14959], [-0.35074, 54.14975], [-0.34638, 54.14685], [-0.33693, 54.14954], [-0.32879, 54.14905], [-0.32383, 54.15028], [-0.32264, 54.14526], [-0.31375, 54.14638], [-0.30765, 54.13788], [-0.30407, 54.13625], [-0.29155, 54.13874], [-0.29055, 54.13974], [-0.27644, 54.13958], [-0.26905, 54.13831], [-0.26541, 54.14054], [-0.24519, 54.13711], [-0.23721, 54.13723], [-0.22973, 54.13242], [-0.22905, 54.13571], [-0.22168, 54.13795], [-0.2214, 54.14202], [-0.21691, 54.14833], [-0.21253, 54.15757], [-0.17265, 54.15147], [-0.16533, 54.14884], [-0.16249, 54.14642], [-0.14765, 54.14284], [-0.12907, 54.13519], [-0.12131, 54.13305], [-0.11497, 54.1331], [-0.11511, 54.13178], [-0.11363, 54.13108], [-0.1087, 54.13243], [-0.10603, 54.12948], [-0.1029, 54.13119], [-0.1007, 54.13006], [-0.1012, 54.12955], [-0.09969, 54.1301], [-0.09674, 54.1284], [-0.09715, 54.12778], [-0.0961, 54.12815], [-0.09612, 54.12723], [-0.09374, 54.12838], [-0.09424, 54.12725], [-0.09263, 54.12571], [-0.08318, 54.12251], [-0.08318, 54.11947], [-0.08181, 54.119], [-0.0829, 54.11905], [-0.08238, 54.11753], [-0.07866, 54.11763], [-0.07635, 54.11627], [-0.07737, 54.11483], [-0.07615, 54.11459], [-0.08185, 54.11086], [-0.10471, 54.10411], [-0.11277, 54.10338], [-0.1163, 54.10453], [-0.1221, 54.10359], [-0.1406, 54.10434], [-0.16479, 54.09956], [-0.17209, 54.09581], [-0.18228, 54.08729], [-0.18699, 54.08163], [-0.18635, 54.07958], [-0.18718, 54.08111], [-0.19251, 54.0817], [-0.19125, 54.08088], [-0.19309, 54.08019], [-0.18691, 54.08], [-0.19386, 54.08012], [-0.19841, 54.0779], [-0.20695, 54.06774], [-0.21297, 54.05372], [-0.21577, 54.03828], [-0.21612, 54.02677], [-0.2141, 54.01726], [-0.21505, 54.01581], [-0.20983, 53.99985], [-0.18327, 53.94912], [-0.17269, 53.9316], [-0.16256, 53.9194], [-0.1595, 53.91157], [-0.15672, 53.90761], [-0.15592, 53.90472], [-0.1568, 53.90371], [-0.14576, 53.88969], [-0.13275, 53.87701], [-0.13296, 53.87557], [-0.1302, 53.87222], [-0.12198, 53.86397], [-0.09585, 53.84203], [-0.02705, 53.7807], [0.02909, 53.73676], [0.04112, 53.72636], [0.04647, 53.71946], [0.05764, 53.71133], [0.06952, 53.70068], [0.09642, 53.68101], [0.11701, 53.66224], [0.12946, 53.64486], [0.13406, 53.63328], [0.14178, 53.62196], [0.14193, 53.61947], [0.14733, 53.60733], [0.14758, 53.60228], [0.1441, 53.59613], [0.13596, 53.5891], [0.12991, 53.58607], [0.10835, 53.57145], [0.10596, 53.57261], [0.10774, 53.57511], [0.11462, 53.57746], [0.1266, 53.58669], [0.13207, 53.59016], [0.13513, 53.59048], [0.14177, 53.59539], [0.14583, 53.60104], [0.1459, 53.60765], [0.13892, 53.61447], [0.13334, 53.61685], [0.12457, 53.62339], [0.12138, 53.62352], [0.10547, 53.63217], [0.07959, 53.64099], [0.03449, 53.64919], [0.02432, 53.64817], [0.01948, 53.64523], [0.00751, 53.65214], [0.00058, 53.65484], [0.01142, 53.64955], [0.01746, 53.64578], [0.01733, 53.64489], [-0.0083, 53.64123], [-0.04967, 53.63208], [-0.05409, 53.62899], [-0.07888, 53.63093], [-0.10354, 53.63532], [-0.11352, 53.63943], [-0.13053, 53.64931], [-0.13176, 53.65049], [-0.13034, 53.65219], [-0.13332, 53.65073], [-0.13936, 53.65447], [-0.15498, 53.66613], [-0.15635, 53.66615], [-0.15583, 53.66672], [-0.16297, 53.67219], [-0.1672, 53.67441], [-0.16942, 53.67391], [-0.1676, 53.67458], [-0.16844, 53.67644], [-0.17976, 53.68404], [-0.18148, 53.68382], [-0.18111, 53.68495], [-0.18404, 53.68678], [-0.19369, 53.69036], [-0.21332, 53.70381], [-0.22725, 53.70847], [-0.2357, 53.72018], [-0.23475, 53.72349], [-0.23693, 53.72668], [-0.23184, 53.72884], [-0.23298, 53.73151], [-0.23033, 53.73356], [-0.2335, 53.73176], [-0.23246, 53.72942], [-0.23503, 53.72811], [-0.24319, 53.72956], [-0.24438, 53.73081], [-0.24371, 53.73111], [-0.24511, 53.73544], [-0.24276, 53.73879], [-0.24393, 53.73968], [-0.24658, 53.74018], [-0.2473, 53.74113], [-0.24664, 53.74008], [-0.24306, 53.73889], [-0.24865, 53.73344], [-0.25017, 53.73327], [-0.25591, 53.73626]]]]}}, {"type": "Feature", "properties": {"name": "North Yorkshire"}, "geometry": {"type": "MultiPolygon", "coordinates": [[[[-1.11292, 53.87183], [-1.12132, 53.86634], [-1.12578, 53.86582], [-1.12717, 53.86511], [-1.1282, 53.8633], [-1.12772, 53.86193], [-1.12389, 53.85891], [-1.11886, 53.8571], [-1.11837, 53.85602], [-1.12007, 53.853], [-1.1241, 53.84984], [-1.12405, 53.84649], [-1.1252, 53.8447], [-1.12819, 53.84388], [-1.13045, 53.84527], [-1.13247, 53.84567], [-1.13396, 53.84549], [-1.13536, 53.84457], [-1.13894, 53.83973], [-1.14295, 53.8399], [-1.14152, 53.84323], [-1.14247, 53.84478], [-1.14468, 53.84652], [-1.14339, 53.84904], [-1.14448, 53.85006], [-1.15198, 53.84901], [-1.1578, 53.85175], [-1.16056, 53.85031], [-1.16242, 53.84823], [-1.16614, 53.84701], [-1.17004, 53.85148], [-1.17127, 53.85555], [-1.17301, 53.85615], [-1.17752, 53.85627], [-1.1802, 53.85533], [-1.18239, 53.85385], [-1.18363, 53.84988], [-1.19213, 53.85434], [-1.19677, 53.85382], [-1.20013, 53.85536], [-1.20224, 53.85422], [-1.20609, 53.85474], [-1.20212, 53.85405], [-1.1996, 53.85508], [-1.19731, 53.8537], [-1.19186, 53.85404], [-1.18317, 53.84964], [-1.18201, 53.85361], [-1.17963, 53.85539], [-1.17294, 53.85594], [-1.17153, 53.85536], [-1.17036, 53.85143], [-1.16623, 53.8468], [-1.16207, 53.848], [-1.1603, 53.85027], [-1.15777, 53.85129], [-1.15153, 53.84881], [-1.14436, 53.84976], [-1.14377, 53.84893], [-1.145, 53.84653], [-1.14191, 53.84328], [-1.14321, 53.83971], [-1.14148, 53.83919], [-1.13774, 53.83974], [-1.13453, 53.84495], [-1.12992, 53.84478], [-1.13357, 53.84389], [-1.13446, 53.84267], [-1.13068, 53.83851], [-1.12867, 53.83333], [-1.12652, 53.83271], [-1.11798, 53.8365], [-1.10411, 53.83708], [-1.09891, 53.83633], [-1.0887, 53.83135], [-1.08223, 53.83481], [-1.07663, 53.83561], [-1.07664, 53.83251], [-1.08469, 53.82447], [-1.08512, 53.82262], [-1.08359, 53.82133], [-1.07934, 53.81932], [-1.06935, 53.81803], [-1.06292, 53.81393], [-1.05414, 53.81137], [-1.0432, 53.81022], [-1.04694, 53.80702], [-1.0484, 53.80358], [-1.04864, 53.79583], [-1.04656, 53.79131], [-1.04709, 53.79004], [-1.06645, 53.78786], [-1.06814, 53.78611], [-1.06707, 53.78657], [-1.06236, 53.78388], [-1.03759, 53.7773], [-1.03348, 53.77666], [-1.02787, 53.77707], [-1.02472, 53.77588], [-1.02178, 53.77166], [-1.02968, 53.77081], [-1.03396, 53.76608], [-1.03406, 53.76473], [-1.02454, 53.7595], [-1.01102, 53.76358], [-1.00148, 53.76858], [-0.99955, 53.76562], [-0.99538, 53.76443], [-0.98699, 53.7642], [-0.98874, 53.76093], [-0.98206, 53.75322], [-0.97708, 53.75052], [-0.9639, 53.74651], [-0.96204, 53.7411], [-0.96303, 53.73711], [-0.96162, 53.73569], [-0.9526, 53.73534], [-0.94452, 53.73245], [-0.93633, 53.73132], [-0.9118, 53.73237], [-0.91247, 53.72834], [-0.90589, 53.72522], [-0.90384, 53.72085], [-0.90426, 53.71802], [-0.90655, 53.7171], [-0.91241, 53.71888], [-0.92395, 53.71881], [-0.93526, 53.71641], [-0.94416, 53.71269], [-0.95783, 53.71499], [-0.95925, 53.71364], [-0.95936, 53.7099], [-0.96165, 53.70764], [-0.95808, 53.70505], [-0.96292, 53.70355], [-0.96278, 53.70095], [-0.96658, 53.70078], [-0.9696, 53.70226], [-0.96603, 53.70458], [-0.96799, 53.70697], [-0.98092, 53.70515], [-0.98372, 53.70255], [-0.98271, 53.69912], [-0.98029, 53.6971], [-0.99449, 53.69761], [-1.00105, 53.69907], [-1.00689, 53.69553], [-1.01101, 53.69705], [-1.02136, 53.69823], [-1.03405, 53.69662], [-1.03887, 53.69405], [-1.04557, 53.69869], [-1.05348, 53.69698], [-1.05391, 53.70157], [-1.06084, 53.70662], [-1.06368, 53.7067], [-1.06901, 53.70434], [-1.07101, 53.70827], [-1.07262, 53.70917], [-1.07543, 53.70924], [-1.0806, 53.70829], [-1.08093, 53.71105], [-1.08438, 53.71493], [-1.08434, 53.71742], [-1.09114, 53.71493], [-1.09378, 53.71302], [-1.09586, 53.71411], [-1.09496, 53.71621], [-1.10386, 53.71464], [-1.10404, 53.71551], [-1.09886, 53.71782], [-1.09836, 53.71935], [-1.10447, 53.71879], [-1.10797, 53.72137], [-1.10828, 53.723], [-1.10938, 53.72334], [-1.11246, 53.72263], [-1.115, 53.71996], [-1.11646, 53.72006], [-1.1167, 53.72287], [-1.12087, 53.72665], [-1.11706, 53.72265], [-1.1174, 53.72006], [-1.11543, 53.71931], [-1.11217, 53.72242], [-1.10913, 53.72299], [-1.1085, 53.72129], [-1.10486, 53.71863], [-1.09888, 53.71907], [-1.10026, 53.71724], [-1.10488, 53.71535], [-1.10416, 53.71443], [-1.09576, 53.71594], [-1.09613, 53.71395], [-1.09409, 53.71274], [-1.08476, 53.71691], [-1.08475, 53.71458], [-1.08139, 53.71097], [-1.08132, 53.70825], [-1.0798, 53.70782], [-1.07231, 53.70878], [-1.06893, 53.70396], [-1.0697, 53.70286], [-1.07493, 53.70398], [-1.07816, 53.69774], [-1.07635, 53.69673], [-1.08501, 53.68694], [-1.08068, 53.68526], [-1.08106, 53.68457], [-1.08732, 53.6833], [-1.09748, 53.67527], [-1.10199, 53.67438], [-1.10357, 53.66954], [-1.09152, 53.66866], [-1.08701, 53.66658], [-1.08877, 53.66446], [-1.08564, 53.66237], [-1.0788, 53.66044], [-1.07106, 53.66], [-1.07119, 53.65789], [-1.06328, 53.65746], [-1.06187, 53.65919], [-1.06023, 53.65925], [-1.05754, 53.65761], [-1.051, 53.65754], [-1.04866, 53.65604], [-1.05171, 53.65251], [-1.06607, 53.64887], [-1.07117, 53.64892], [-1.08481, 53.65171], [-1.09046, 53.64985], [-1.09512, 53.64997], [-1.11605, 53.64578], [-1.12174, 53.6467], [-1.125, 53.64396], [-1.12899, 53.64297], [-1.12707, 53.63854], [-1.12887, 53.63493], [-1.1354, 53.63271], [-1.1389, 53.63345], [-1.14012, 53.6356], [-1.14351, 53.63633], [-1.14574, 53.63853], [-1.14966, 53.6388], [-1.15229, 53.64276], [-1.15879, 53.64341], [-1.16138, 53.64176], [-1.16777, 53.64079], [-1.17445, 53.63816], [-1.19031, 53.6359], [-1.19369, 53.63637], [-1.19452, 53.63809], [-1.19846, 53.64023], [-1.20982, 53.64315], [-1.21089, 53.64094], [-1.21564, 53.64196], [-1.21938, 53.63667], [-1.21963, 53.63447], [-1.21736, 53.62909], [-1.21747, 53.62421], [-1.23284, 53.62109], [-1.23806, 53.62684], [-1.24288, 53.6346], [-1.25366, 53.64118], [-1.25537, 53.64478], [-1.25521, 53.64894], [-1.25168, 53.64838], [-1.24877, 53.64961], [-1.25116, 53.65161], [-1.24696, 53.6556], [-1.25229, 53.66175], [-1.25119, 53.66257], [-1.25232, 53.66664], [-1.24878, 53.6716], [-1.24395, 53.67323], [-1.24243, 53.68047], [-1.24441, 53.69241], [-1.19899, 53.69488], [-1.19967, 53.69871], [-1.19881, 53.70071], [-1.21513, 53.70547], [-1.21564, 53.70693], [-1.21844, 53.70708], [-1.21879, 53.70929], [-1.21714, 53.71123], [-1.21981, 53.7144], [-1.22463, 53.71233], [-1.22394, 53.71065], [-1.22607, 53.70987], [-1.22801, 53.71044], [-1.22759, 53.71286], [-1.22957, 53.71489], [-1.23901, 53.71233], [-1.24818, 53.71171], [-1.25294, 53.71281], [-1.25634, 53.71175], [-1.26903, 53.71514], [-1.27196, 53.72491], [-1.27768, 53.7265], [-1.28665, 53.73537], [-1.29217, 53.73885], [-1.29647, 53.73958], [-1.30235, 53.74248], [-1.30722, 53.74272], [-1.31003, 53.74452], [-1.31535, 53.74366], [-1.31208, 53.75216], [-1.31224, 53.75587], [-1.3085, 53.75648], [-1.30773, 53.75513], [-1.30556, 53.75472], [-1.3015, 53.75572], [-1.29494, 53.75545], [-1.29675, 53.75894], [-1.2927, 53.76013], [-1.29054, 53.76275], [-1.29196, 53.76718], [-1.29558, 53.7713], [-1.29812, 53.77279], [-1.30678, 53.77303], [-1.30346, 53.77491], [-1.31259, 53.77928], [-1.3116, 53.77968], [-1.31381, 53.78154], [-1.31363, 53.78607], [-1.31127, 53.78801], [-1.31282, 53.78935], [-1.31172, 53.79543], [-1.31487, 53.80954], [-1.31362, 53.80964], [-1.31243, 53.81436], [-1.3076, 53.81361], [-1.30362, 53.81652], [-1.31039, 53.8199], [-1.30967, 53.82288], [-1.31537, 53.82358], [-1.33277, 53.83277], [-1.33609, 53.83357], [-1.32974, 53.83581], [-1.32534, 53.83504], [-1.32655, 53.84041], [-1.32815, 53.84128], [-1.33234, 53.84094], [-1.34213, 53.84516], [-1.33842, 53.85173], [-1.34275, 53.8515], [-1.35297, 53.85673], [-1.33155, 53.86152], [-1.31889, 53.86227], [-1.3126, 53.8653], [-1.31178, 53.86686], [-1.31479, 53.86865], [-1.3184, 53.87746], [-1.31708, 53.87847], [-1.31969, 53.87894], [-1.31576, 53.87947], [-1.3156, 53.88166], [-1.3208, 53.88377], [-1.32002, 53.88851], [-1.31795, 53.88873], [-1.31793, 53.89183], [-1.31677, 53.89201], [-1.31814, 53.89753], [-1.32227, 53.90044], [-1.32178, 53.9029], [-1.30058, 53.90747], [-1.30201, 53.90967], [-1.30119, 53.91453], [-1.30008, 53.91909], [-1.2972, 53.92166], [-1.30033, 53.92065], [-1.30142, 53.92118], [-1.30093, 53.92235], [-1.3073, 53.92148], [-1.30424, 53.92495], [-1.29417, 53.92705], [-1.30041, 53.9294], [-1.30222, 53.92739], [-1.30527, 53.92711], [-1.30659, 53.92428], [-1.30899, 53.92408], [-1.30696, 53.93441], [-1.32058, 53.93603], [-1.3211, 53.937], [-1.3311, 53.93847], [-1.33245, 53.93974], [-1.33627, 53.93848], [-1.33953, 53.94079], [-1.34471, 53.93948], [-1.3404, 53.94587], [-1.35238, 53.94423], [-1.35855, 53.94168], [-1.36195, 53.94147], [-1.37037, 53.94303], [-1.37496, 53.94095], [-1.38168, 53.94047], [-1.38647, 53.94317], [-1.39718, 53.94252], [-1.3999, 53.94141], [-1.40065, 53.93748], [-1.40919, 53.93545], [-1.40846, 53.93494], [-1.41062, 53.93014], [-1.4067, 53.92783], [-1.42811, 53.92942], [-1.43234, 53.92743], [-1.43355, 53.92634], [-1.43146, 53.92323], [-1.43211, 53.92081], [-1.43013, 53.9138], [-1.4344, 53.91016], [-1.43643, 53.91333], [-1.44044, 53.91389], [-1.44287, 53.9129], [-1.44551, 53.90966], [-1.45092, 53.90712], [-1.45705, 53.90731], [-1.46309, 53.906], [-1.46524, 53.90697], [-1.46551, 53.90961], [-1.46829, 53.911], [-1.48602, 53.9109], [-1.48924, 53.91193], [-1.49343, 53.91513], [-1.49877, 53.91529], [-1.50772, 53.91175], [-1.52144, 53.91131], [-1.52859, 53.90868], [-1.54879, 53.9109], [-1.55122, 53.90305], [-1.55704, 53.90486], [-1.56288, 53.90391], [-1.56621, 53.90996], [-1.56773, 53.91078], [-1.58289, 53.90934], [-1.58547, 53.90714], [-1.58624, 53.90448], [-1.58518, 53.90249], [-1.58685, 53.90124], [-1.59924, 53.90397], [-1.60177, 53.90684], [-1.59889, 53.90887], [-1.59999, 53.90976], [-1.60718, 53.90897], [-1.61203, 53.90617], [-1.62053, 53.90338], [-1.62792, 53.90531], [-1.63792, 53.90553], [-1.64226, 53.90735], [-1.65202, 53.90571], [-1.65441, 53.90832], [-1.65226, 53.911], [-1.65508, 53.91247], [-1.66519, 53.91309], [-1.6705, 53.91125], [-1.68462, 53.91057], [-1.68457, 53.91197], [-1.68819, 53.91173], [-1.68917, 53.91263], [-1.68702, 53.91637], [-1.69691, 53.91767], [-1.69861, 53.91678], [-1.70708, 53.91912], [-1.70611, 53.91706], [-1.70895, 53.91802], [-1.71643, 53.91762], [-1.7187, 53.91046], [-1.71795, 53.90853], [-1.72231, 53.91194], [-1.72901, 53.91031], [-1.74216, 53.91457], [-1.74599, 53.91852], [-1.74562, 53.92299], [-1.7555, 53.92103], [-1.76542, 53.92471], [-1.76782, 53.924], [-1.76896, 53.92155], [-1.77228, 53.92087], [-1.77598, 53.92147], [-1.78244, 53.92943], [-1.79801, 53.9297], [-1.79636, 53.93089], [-1.79749, 53.93647], [-1.80286, 53.93594], [-1.80509, 53.93901], [-1.82015, 53.93804], [-1.82402, 53.93903], [-1.8302, 53.938], [-1.83012, 53.94037], [-1.84172, 53.93936], [-1.84769, 53.94076], [-1.84865, 53.93601], [-1.8362, 53.93141], [-1.84333, 53.93295], [-1.85223, 53.93096], [-1.86083, 53.93289], [-1.86298, 53.93443], [-1.8621, 53.94055], [-1.87201, 53.94385], [-1.87501, 53.94604], [-1.87627, 53.95128], [-1.87994, 53.95589], [-1.87814, 53.95898], [-1.87951, 53.96282], [-1.88545, 53.963], [-1.88638, 53.96088], [-1.8897, 53.95926], [-1.89313, 53.95537], [-1.89884, 53.95538], [-1.90357, 53.95722], [-1.9035, 53.95826], [-1.90627, 53.95836], [-1.91912, 53.9549], [-1.92277, 53.95562], [-1.92798, 53.95044], [-1.94161, 53.9525], [-1.94399, 53.95617], [-1.95068, 53.95673], [-1.94936, 53.953], [-1.9582, 53.95394], [-1.96617, 53.95155], [-1.96505, 53.94822], [-1.96389, 53.94803], [-1.96238, 53.94531], [-1.96229, 53.94319], [-1.97052, 53.94332], [-1.96307, 53.93339], [-1.96802, 53.93181], [-1.96591, 53.93041], [-1.96589, 53.92787], [-1.97041, 53.92842], [-1.97192, 53.92997], [-1.97686, 53.9264], [-1.97394, 53.92404], [-1.9617, 53.91827], [-1.95745, 53.91357], [-1.95322, 53.91169], [-1.95256, 53.90352], [-1.96842, 53.90383], [-1.97488, 53.90116], [-1.97935, 53.90117], [-1.9789, 53.898], [-1.9811, 53.89696], [-1.98131, 53.89424], [-1.97725, 53.88772], [-1.97809, 53.88419], [-1.97612, 53.87888], [-1.97698, 53.87559], [-1.9802, 53.8711], [-1.98236, 53.86885], [-1.98765, 53.86772], [-1.99548, 53.86867], [-1.99945, 53.87205], [-2.01348, 53.86972], [-2.02163, 53.87148], [-2.03171, 53.85858], [-2.04613, 53.85013], [-2.06229, 53.85907], [-2.06896, 53.85972], [-2.07485, 53.86235], [-2.07672, 53.86682], [-2.08119, 53.86996], [-2.08449, 53.87006], [-2.08991, 53.86817], [-2.08269, 53.87369], [-2.08144, 53.87567], [-2.08245, 53.87754], [-2.09385, 53.88507], [-2.09573, 53.88814], [-2.10302, 53.89093], [-2.11317, 53.9046], [-2.10746, 53.90803], [-2.11469, 53.91374], [-2.11309, 53.91543], [-2.11829, 53.91764], [-2.12175, 53.91732], [-2.12462, 53.92191], [-2.12435, 53.92319], [-2.13016, 53.92347], [-2.13254, 53.92553], [-2.13222, 53.92649], [-2.13997, 53.92831], [-2.14179, 53.92566], [-2.14943, 53.92601], [-2.14811, 53.92781], [-2.15171, 53.92947], [-2.15688, 53.92701], [-2.15966, 53.92863], [-2.16287, 53.92726], [-2.16379, 53.93027], [-2.16165, 53.93181], [-2.16207, 53.93261], [-2.16412, 53.93462], [-2.17168, 53.93767], [-2.17442, 53.93665], [-2.17594, 53.93425], [-2.18228, 53.93538], [-2.18438, 53.93712], [-2.18548, 53.94187], [-2.18371, 53.94369], [-2.18384, 53.9452], [-2.17946, 53.94597], [-2.18071, 53.94798], [-2.18368, 53.94932], [-2.18352, 53.95142], [-2.18776, 53.95417], [-2.19361, 53.96139], [-2.19601, 53.96956], [-2.20063, 53.97011], [-2.20166, 53.96783], [-2.20665, 53.96639], [-2.20964, 53.96289], [-2.21311, 53.96339], [-2.21442, 53.96509], [-2.22573, 53.96109], [-2.22594, 53.96724], [-2.2293, 53.9673], [-2.22973, 53.96966], [-2.23201, 53.97122], [-2.22769, 53.97484], [-2.22106, 53.97791], [-2.2271, 53.97833], [-2.23034, 53.98152], [-2.24441, 53.98104], [-2.24587, 53.97926], [-2.24821, 53.97867], [-2.2845, 53.9738], [-2.28615, 53.97475], [-2.29432, 53.97442], [-2.29885, 53.97655], [-2.29673, 53.98054], [-2.30532, 53.9839], [-2.30447, 53.98453], [-2.30946, 53.98745], [-2.31425, 53.98861], [-2.31836, 53.99208], [-2.31883, 53.99372], [-2.32693, 53.99385], [-2.33367, 53.9904], [-2.33597, 53.99171], [-2.33832, 53.99123], [-2.33992, 53.98941], [-2.35236, 53.99466], [-2.35357, 54.00377], [-2.35231, 54.01053], [-2.35029, 54.01219], [-2.34798, 54.00998], [-2.34076, 54.00745], [-2.33956, 54.00942], [-2.34354, 54.01731], [-2.35732, 54.0191], [-2.35654, 54.02146], [-2.36035, 54.02431], [-2.35951, 54.02638], [-2.36173, 54.02722], [-2.36193, 54.02923], [-2.35926, 54.03174], [-2.36266, 54.03443], [-2.36185, 54.03794], [-2.36418, 54.04008], [-2.362, 54.04066], [-2.37407, 54.04908], [-2.38442, 54.0476], [-2.38716, 54.04521], [-2.39474, 54.0433], [-2.39706, 54.0442], [-2.41894, 54.04136], [-2.42252, 54.04056], [-2.42582, 54.03808], [-2.43273, 54.04158], [-2.44532, 54.04215], [-2.45663, 54.04016], [-2.46467, 54.04319], [-2.46955, 54.0462], [-2.47054, 54.05084], [-2.46901, 54.05487], [-2.46399, 54.06107], [-2.46561, 54.07172], [-2.46435, 54.07527], [-2.47072, 54.07655], [-2.48075, 54.08537], [-2.48636, 54.08483], [-2.4884, 54.08671], [-2.49156, 54.08731], [-2.49256, 54.08986], [-2.5063, 54.09146], [-2.50875, 54.09241], [-2.50952, 54.09541], [-2.52052, 54.09553], [-2.52401, 54.09461], [-2.52559, 54.09602], [-2.52639, 54.09917], [-2.52449, 54.1003], [-2.52411, 54.10212], [-2.53676, 54.10409], [-2.53813, 54.10566], [-2.53673, 54.10647], [-2.5362, 54.10861], [-2.54583, 54.11436], [-2.54476, 54.11712], [-2.55308, 54.12053], [-2.55921, 54.12107], [-2.56333, 54.12269], [-2.5633, 54.12538], [-2.56474, 54.12706], [-2.56139, 54.12989], [-2.56249, 54.13172], [-2.56222, 54.13517], [-2.56371, 54.13545], [-2.56266, 54.1365], [-2.56341, 54.14039], [-2.56095, 54.14283], [-2.55787, 54.14335], [-2.55738, 54.14997], [-2.56151, 54.15052], [-2.5605, 54.15304], [-2.54722, 54.1533], [-2.54376, 54.15753], [-2.53652, 54.15654], [-2.5333, 54.15825], [-2.53299, 54.16084], [-2.53079, 54.16152], [-2.53045, 54.16402], [-2.5289, 54.16423], [-2.53024, 54.16642], [-2.52872, 54.1695], [-2.52328, 54.17121], [-2.52254, 54.17368], [-2.5182, 54.17664], [-2.51144, 54.17904], [-2.47996, 54.2023], [-2.47963, 54.20462], [-2.4737, 54.21527], [-2.46397, 54.2221], [-2.46086, 54.22671], [-2.44141, 54.22573], [-2.43542, 54.22287], [-2.43194, 54.22418], [-2.42649, 54.2237], [-2.41197, 54.22668], [-2.40645, 54.22592], [-2.40563, 54.2249], [-2.40363, 54.22557], [-2.40093, 54.23403], [-2.39678, 54.23937], [-2.37302, 54.24009], [-2.37232, 54.24822], [-2.36231, 54.24974], [-2.3604, 54.24664], [-2.35055, 54.24136], [-2.34805, 54.2378], [-2.33765, 54.23759], [-2.32827, 54.24187], [-2.32564, 54.24143], [-2.32265, 54.24545], [-2.32209, 54.25501], [-2.31909, 54.25714], [-2.32082, 54.25992], [-2.31805, 54.26358], [-2.31828, 54.26589], [-2.3161, 54.26784], [-2.31551, 54.27027], [-2.32118, 54.27511], [-2.32379, 54.2793], [-2.32589, 54.27968], [-2.3217, 54.28172], [-2.32165, 54.28312], [-2.31908, 54.28381], [-2.31719, 54.28715], [-2.32417, 54.29359], [-2.32039, 54.29903], [-2.32043, 54.29998], [-2.32434, 54.30076], [-2.32452, 54.30317], [-2.3204, 54.30676], [-2.32303, 54.31107], [-2.32015, 54.31207], [-2.31867, 54.31128], [-2.31497, 54.31358], [-2.30984, 54.3243], [-2.31805, 54.32809], [-2.3202, 54.33174], [-2.32816, 54.33214], [-2.33475, 54.33493], [-2.3345, 54.33787], [-2.33576, 54.34042], [-2.34792, 54.34513], [-2.34813, 54.34677], [-2.35967, 54.35026], [-2.36771, 54.35606], [-2.36615, 54.35503], [-2.36074, 54.35494], [-2.35643, 54.35592], [-2.35287, 54.35832], [-2.34464, 54.35962], [-2.33825, 54.36382], [-2.33455, 54.36381], [-2.32995, 54.36712], [-2.32609, 54.36809], [-2.31704, 54.3763], [-2.29744, 54.37689], [-2.29206, 54.38419], [-2.29322, 54.3868], [-2.29542, 54.38714], [-2.29227, 54.38869], [-2.29198, 54.39148], [-2.3055, 54.39711], [-2.30634, 54.39875], [-2.30478, 54.40189], [-2.30741, 54.40429], [-2.30568, 54.40758], [-2.30821, 54.41648], [-2.30798, 54.42068], [-2.3056, 54.42242], [-2.30353, 54.42615], [-2.29943, 54.42703], [-2.29453, 54.43126], [-2.29185, 54.43145], [-2.29149, 54.43605], [-2.29286, 54.4393], [-2.28431, 54.43843], [-2.27134, 54.44091], [-2.26537, 54.44292], [-2.2679, 54.44722], [-2.25986, 54.44851], [-2.24953, 54.45193], [-2.24623, 54.45177], [-2.24411, 54.45006], [-2.23873, 54.44987], [-2.23561, 54.44822], [-2.18931, 54.44897], [-2.1775, 54.46162], [-2.17057, 54.46113], [-2.17193, 54.45946], [-2.17021, 54.45819], [-2.16479, 54.45651], [-2.15987, 54.4565], [-2.15926, 54.45547], [-2.15011, 54.45995], [-2.13888, 54.46164], [-2.11659, 54.46225], [-2.1143, 54.46418], [-2.10443, 54.4649], [-2.08639, 54.46838], [-2.07117, 54.47425], [-2.06128, 54.48055], [-2.05307, 54.4807], [-2.04319, 54.48359], [-2.04472, 54.47518], [-2.01464, 54.47155], [-1.99676, 54.46689], [-1.98653, 54.46155], [-1.98553, 54.45992], [-1.97612, 54.45972], [-1.9711, 54.4548], [-1.97174, 54.45396], [-1.97005, 54.45151], [-1.9605, 54.45215], [-1.95542, 54.45385], [-1.94699, 54.4543], [-1.94254, 54.45339], [-1.93402, 54.45731], [-1.92832, 54.45648], [-1.91318, 54.46198], [-1.89342, 54.46689], [-1.8776, 54.47804], [-1.86725, 54.48211], [-1.85912, 54.48185], [-1.85852, 54.48278], [-1.86082, 54.48637], [-1.85921, 54.48907], [-1.85931, 54.49263], [-1.85771, 54.49365], [-1.85866, 54.49902], [-1.85779, 54.50353], [-1.84821, 54.50365], [-1.83943, 54.50843], [-1.83646, 54.50801], [-1.83229, 54.50516], [-1.83185, 54.50264], [-1.82778, 54.50292], [-1.82644, 54.50066], [-1.82438, 54.50014], [-1.82454, 54.49789], [-1.82244, 54.49517], [-1.79297, 54.48448], [-1.78901, 54.49178], [-1.79026, 54.49288], [-1.78688, 54.49888], [-1.78717, 54.50103], [-1.78505, 54.50138], [-1.78512, 54.50279], [-1.78217, 54.507], [-1.77612, 54.50672], [-1.77758, 54.51567], [-1.77734, 54.51937], [-1.77634, 54.5191], [-1.77685, 54.52535], [-1.78155, 54.52682], [-1.77969, 54.53186], [-1.76971, 54.53283], [-1.7612, 54.52894], [-1.754, 54.52864], [-1.75124, 54.53014], [-1.73308, 54.52773], [-1.73136, 54.53067], [-1.7273, 54.53047], [-1.72282, 54.53968], [-1.72387, 54.54158], [-1.7213, 54.54229], [-1.7041, 54.53665], [-1.68952, 54.53538], [-1.68362, 54.53347], [-1.67323, 54.53537], [-1.65793, 54.53458], [-1.65503, 54.53182], [-1.65702, 54.52637], [-1.65467, 54.52464], [-1.6463, 54.52425], [-1.63675, 54.52591], [-1.63228, 54.524], [-1.63173, 54.52254], [-1.63375, 54.51795], [-1.64018, 54.51708], [-1.63332, 54.5141], [-1.62357, 54.51464], [-1.6121, 54.51998], [-1.60395, 54.51935], [-1.60061, 54.51709], [-1.60106, 54.5148], [-1.60368, 54.51204], [-1.60263, 54.51057], [-1.59464, 54.51234], [-1.58106, 54.51283], [-1.57955, 54.51108], [-1.5813, 54.50948], [-1.59135, 54.50584], [-1.59187, 54.50429], [-1.5895, 54.50359], [-1.57911, 54.5051], [-1.58021, 54.50049], [-1.58352, 54.49774], [-1.58293, 54.49706], [-1.57699, 54.49439], [-1.5733, 54.49015], [-1.55519, 54.48497], [-1.55371, 54.47879], [-1.55112, 54.47449], [-1.54566, 54.47123], [-1.5337, 54.46919], [-1.52014, 54.47083], [-1.51954, 54.47256], [-1.52063, 54.4735], [-1.53014, 54.47574], [-1.5313, 54.48058], [-1.5306, 54.48352], [-1.52915, 54.48471], [-1.51807, 54.48502], [-1.51412, 54.48376], [-1.51199, 54.48114], [-1.5143, 54.47656], [-1.51133, 54.475], [-1.50686, 54.47847], [-1.50541, 54.48231], [-1.49688, 54.48581], [-1.49177, 54.48619], [-1.49052, 54.48515], [-1.49131, 54.48327], [-1.49934, 54.47808], [-1.49904, 54.47567], [-1.49667, 54.47437], [-1.48702, 54.47298], [-1.47908, 54.47531], [-1.47536, 54.47383], [-1.47395, 54.46788], [-1.46761, 54.46214], [-1.46884, 54.45934], [-1.4722, 54.45745], [-1.47204, 54.45559], [-1.46172, 54.45114], [-1.4571, 54.452], [-1.45491, 54.45348], [-1.45488, 54.45473], [-1.46191, 54.45957], [-1.46279, 54.46131], [-1.46196, 54.46289], [-1.45341, 54.46597], [-1.4597, 54.46906], [-1.46018, 54.4713], [-1.46379, 54.47354], [-1.46136, 54.4784], [-1.45757, 54.48147], [-1.46182, 54.48594], [-1.4584, 54.49124], [-1.45846, 54.49283], [-1.45989, 54.49512], [-1.46248, 54.49635], [-1.47203, 54.49592], [-1.47402, 54.49641], [-1.47555, 54.49857], [-1.47316, 54.50144], [-1.4621, 54.50423], [-1.45649, 54.5028], [-1.45189, 54.49735], [-1.4465, 54.49441], [-1.44288, 54.4909], [-1.42657, 54.48477], [-1.42799, 54.48298], [-1.43319, 54.48093], [-1.43295, 54.47995], [-1.42313, 54.47887], [-1.4171, 54.47699], [-1.41246, 54.47723], [-1.40946, 54.47885], [-1.40767, 54.4839], [-1.40993, 54.48959], [-1.40666, 54.49355], [-1.40235, 54.49412], [-1.39961, 54.49293], [-1.39818, 54.49099], [-1.39888, 54.48787], [-1.39476, 54.48557], [-1.38317, 54.48699], [-1.38178, 54.48815], [-1.3827, 54.49146], [-1.38091, 54.49391], [-1.37029, 54.48613], [-1.37437, 54.48422], [-1.37433, 54.47405], [-1.36441, 54.46594], [-1.35628, 54.47296], [-1.35303, 54.47241], [-1.3509, 54.47341], [-1.3449, 54.4724], [-1.34381, 54.47105], [-1.34478, 54.46902], [-1.3423, 54.46765], [-1.34471, 54.46601], [-1.34362, 54.46414], [-1.3235, 54.47142], [-1.3183, 54.47219], [-1.3131, 54.47727], [-1.30879, 54.47648], [-1.30317, 54.47842], [-1.30157, 54.47641], [-1.30308, 54.4759], [-1.30042, 54.4758], [-1.29694, 54.47949], [-1.29353, 54.4796], [-1.29158, 54.48343], [-1.29038, 54.48343], [-1.29073, 54.48193], [-1.2867, 54.48272], [-1.28781, 54.48635], [-1.28958, 54.48797], [-1.28548, 54.48781], [-1.28105, 54.49041], [-1.27769, 54.48973], [-1.27451, 54.49107], [-1.27281, 54.49027], [-1.27309, 54.48926], [-1.26929, 54.4883], [-1.25739, 54.48731], [-1.25721, 54.4932], [-1.25325, 54.49777], [-1.25666, 54.5011], [-1.24231, 54.50165], [-1.2385, 54.50622], [-1.23437, 54.50613], [-1.23485, 54.5103], [-1.23043, 54.51099], [-1.23059, 54.51187], [-1.21409, 54.51002], [-1.2039, 54.5069], [-1.18971, 54.50628], [-1.18508, 54.50727], [-1.17613, 54.5043], [-1.17385, 54.5047], [-1.17438, 54.50288], [-1.17353, 54.50249], [-1.1631, 54.50353], [-1.14805, 54.50111], [-1.14668, 54.50136], [-1.14618, 54.50281], [-1.12664, 54.49871], [-1.11837, 54.49819], [-1.11431, 54.49895], [-1.11225, 54.50078], [-1.11177, 54.50436], [-1.09451, 54.50675], [-1.08724, 54.50334], [-1.07818, 54.50381], [-1.06479, 54.49851], [-1.06, 54.50032], [-1.05106, 54.49641], [-1.03684, 54.49403], [-1.02378, 54.50203], [-1.00339, 54.503], [-0.96781, 54.49726], [-0.95257, 54.488], [-0.94397, 54.48868], [-0.93259, 54.49144], [-0.92293, 54.491], [-0.9014, 54.49419], [-0.8942, 54.4969], [-0.88081, 54.49703], [-0.87632, 54.49538], [-0.87577, 54.49115], [-0.85647, 54.48786], [-0.84851, 54.48796], [-0.84412, 54.48954], [-0.84393, 54.49121], [-0.8486, 54.49552], [-0.8533, 54.5027], [-0.85231, 54.51036], [-0.85019, 54.51145], [-0.85222, 54.5176], [-0.84993, 54.51994], [-0.85141, 54.52399], [-0.84991, 54.52496], [-0.85068, 54.52633], [-0.84863, 54.52999], [-0.83665, 54.54262], [-0.82697, 54.54856], [-0.82038, 54.54935], [-0.81566, 54.55249], [-0.81051, 54.5512], [-0.8004, 54.551], [-0.80056, 54.55182], [-0.79724, 54.55413], [-0.7988, 54.55557], [-0.79553, 54.55486], [-0.79608, 54.5566], [-0.79221, 54.55945], [-0.78961, 54.55856], [-0.78367, 54.55933], [-0.77884, 54.55709], [-0.77452, 54.55739], [-0.77532, 54.55473], [-0.77417, 54.55324], [-0.76938, 54.55204], [-0.76512, 54.54865], [-0.76722, 54.54855], [-0.76558, 54.54824], [-0.7677, 54.54725], [-0.76724, 54.54641], [-0.7622, 54.54397], [-0.75511, 54.5435], [-0.75093, 54.54189], [-0.7471, 54.53568], [-0.74954, 54.53269], [-0.74464, 54.52853], [-0.73127, 54.5279], [-0.7273, 54.53048], [-0.71905, 54.53054], [-0.71628, 54.53218], [-0.71578, 54.53438], [-0.70544, 54.53015], [-0.70479, 54.52737], [-0.7001, 54.52574], [-0.6937, 54.52038], [-0.68874, 54.52083], [-0.68181, 54.51943], [-0.68132, 54.51798], [-0.67833, 54.51605], [-0.67773, 54.51382], [-0.67265, 54.51251], [-0.67507, 54.50603], [-0.67249, 54.50448], [-0.67343, 54.50359], [-0.66938, 54.50228], [-0.67026, 54.50074], [-0.6691, 54.5022], [-0.65423, 54.4976], [-0.63988, 54.49561], [-0.62136, 54.49137], [-0.61422, 54.49096], [-0.61302, 54.49431], [-0.61252, 54.49272], [-0.61455, 54.4888], [-0.61339, 54.48689], [-0.61398, 54.48521], [-0.61263, 54.48549], [-0.61259, 54.48422], [-0.61528, 54.47453], [-0.62109, 54.47512], [-0.62311, 54.47459], [-0.62387, 54.47379], [-0.62311, 54.47154], [-0.62481, 54.47013], [-0.63225, 54.46905], [-0.63356, 54.46821], [-0.62549, 54.4695], [-0.62237, 54.47133], [-0.62048, 54.4707], [-0.62229, 54.47158], [-0.62267, 54.47436], [-0.61545, 54.47378], [-0.61311, 54.47582], [-0.61363, 54.47789], [-0.61237, 54.48042], [-0.60725, 54.48022], [-0.61134, 54.48112], [-0.60979, 54.48347], [-0.61354, 54.48825], [-0.61228, 54.48916], [-0.61309, 54.48971], [-0.60962, 54.49061], [-0.61218, 54.49201], [-0.612, 54.49308], [-0.61153, 54.49298], [-0.6124, 54.49421], [-0.60933, 54.49049], [-0.59843, 54.48938], [-0.59275, 54.48764], [-0.58854, 54.48926], [-0.5896, 54.48826], [-0.58831, 54.48588], [-0.5852, 54.48387], [-0.57885, 54.48333], [-0.56889, 54.47973], [-0.56401, 54.47589], [-0.55693, 54.46511], [-0.54973, 54.46123], [-0.5426, 54.45951], [-0.53716, 54.45474], [-0.534, 54.45372], [-0.53462, 54.45289], [-0.53314, 54.45122], [-0.52628, 54.44948], [-0.52146, 54.44695], [-0.52115, 54.444], [-0.52253, 54.44087], [-0.53165, 54.43628], [-0.53142, 54.43473], [-0.5327, 54.43324], [-0.53183, 54.43204], [-0.53243, 54.42933], [-0.53039, 54.42426], [-0.52277, 54.41626], [-0.51294, 54.41132], [-0.50015, 54.40684], [-0.49086, 54.40765], [-0.47851, 54.39897], [-0.47511, 54.39884], [-0.47171, 54.397], [-0.46368, 54.38917], [-0.45457, 54.37595], [-0.44981, 54.37249], [-0.44581, 54.36322], [-0.44697, 54.35934], [-0.44477, 54.35763], [-0.43918, 54.35657], [-0.43307, 54.3503], [-0.43098, 54.34486], [-0.43262, 54.34013], [-0.4233, 54.33901], [-0.42076, 54.33283], [-0.41704, 54.33145], [-0.42158, 54.32598], [-0.42114, 54.32366], [-0.41716, 54.32049], [-0.41885, 54.31987], [-0.41919, 54.31749], [-0.41759, 54.31049], [-0.41396, 54.30701], [-0.40764, 54.30522], [-0.40947, 54.30252], [-0.40896, 54.30101], [-0.41019, 54.3004], [-0.40775, 54.29426], [-0.40587, 54.29208], [-0.39693, 54.28799], [-0.38867, 54.29056], [-0.3865, 54.29008], [-0.38467, 54.28783], [-0.38455, 54.2858], [-0.38694, 54.28248], [-0.3895, 54.28133], [-0.38995, 54.28216], [-0.3884, 54.28196], [-0.3864, 54.28359], [-0.38983, 54.28229], [-0.38735, 54.28381], [-0.39225, 54.2838], [-0.3902, 54.28237], [-0.39279, 54.28325], [-0.39718, 54.27941], [-0.39761, 54.27701], [-0.39658, 54.27438], [-0.39255, 54.27139], [-0.39139, 54.269], [-0.38149, 54.26318], [-0.37623, 54.26274], [-0.37463, 54.26158], [-0.37545, 54.26059], [-0.37489, 54.25915], [-0.37056, 54.25677], [-0.36798, 54.25373], [-0.36597, 54.2539], [-0.36636, 54.25272], [-0.3693, 54.25145], [-0.36949, 54.24931], [-0.36387, 54.24508], [-0.35037, 54.24086], [-0.33867, 54.2426], [-0.33619, 54.24184], [-0.33737, 54.24056], [-0.33488, 54.23836], [-0.31395, 54.232], [-0.31257, 54.23077], [-0.31269, 54.22861], [-0.29222, 54.22481], [-0.27503, 54.21887], [-0.26921, 54.21839], [-0.26529, 54.21679], [-0.2663, 54.21637], [-0.25924, 54.21586], [-0.26571, 54.2159], [-0.27538, 54.21765], [-0.27708, 54.21728], [-0.28228, 54.21229], [-0.28521, 54.20317], [-0.28274, 54.19506], [-0.27948, 54.18957], [-0.27237, 54.18195], [-0.26444, 54.17649], [-0.25139, 54.16968], [-0.22612, 54.15963], [-0.21253, 54.15757], [-0.21691, 54.14833], [-0.2214, 54.14202], [-0.22168, 54.13795], [-0.22905, 54.13571], [-0.22973, 54.13242], [-0.23721, 54.13723], [-0.24519, 54.13711], [-0.26541, 54.14054], [-0.26905, 54.13831], [-0.27644, 54.13958], [-0.29055, 54.13974], [-0.29155, 54.13874], [-0.30407, 54.13625], [-0.30765, 54.13788], [-0.31375, 54.14638], [-0.32264, 54.14526], [-0.32383, 54.15028], [-0.32879, 54.14905], [-0.33693, 54.14954], [-0.34638, 54.14685], [-0.35074, 54.14975], [-0.35526, 54.14959], [-0.36002, 54.1531], [-0.37491, 54.15409], [-0.37499, 54.15621], [-0.3733, 54.15626], [-0.37451, 54.16255], [-0.3807, 54.17034], [-0.39073, 54.1765], [-0.40324, 54.1747], [-0.40406, 54.17583], [-0.40826, 54.17582], [-0.41824, 54.17405], [-0.41809, 54.1712], [-0.42252, 54.17125], [-0.42263, 54.17008], [-0.42454, 54.16956], [-0.42291, 54.1663], [-0.43315, 54.16405], [-0.4331, 54.1606], [-0.43092, 54.15813], [-0.43265, 54.1575], [-0.42708, 54.13742], [-0.45853, 54.12596], [-0.45369, 54.12069], [-0.45469, 54.11995], [-0.45434, 54.11674], [-0.45943, 54.11531], [-0.45867, 54.11402], [-0.46831, 54.11123], [-0.46593, 54.10761], [-0.48984, 54.10087], [-0.50287, 54.09408], [-0.5246, 54.08546], [-0.52792, 54.08932], [-0.53402, 54.08716], [-0.5418, 54.09151], [-0.54551, 54.09104], [-0.55062, 54.09267], [-0.56313, 54.09398], [-0.56645, 54.09029], [-0.59099, 54.08704], [-0.59409, 54.0842], [-0.60585, 54.07778], [-0.60969, 54.07325], [-0.61551, 54.07048], [-0.62774, 54.07018], [-0.62745, 54.06881], [-0.6481, 54.06599], [-0.66031, 54.06308], [-0.64464, 54.05509], [-0.65364, 54.04594], [-0.65629, 54.04543], [-0.65573, 54.04421], [-0.65801, 54.04363], [-0.65631, 54.04062], [-0.65947, 54.03715], [-0.67424, 54.03816], [-0.67849, 54.03723], [-0.68046, 54.03589], [-0.68068, 54.03365], [-0.68259, 54.03411], [-0.68729, 54.03043], [-0.68721, 54.02606], [-0.68847, 54.02399], [-0.68414, 54.02263], [-0.68381, 54.02098], [-0.67841, 54.01822], [-0.68306, 54.01245], [-0.68158, 54.01122], [-0.68367, 54.00875], [-0.70489, 54.00605], [-0.70865, 54.00805], [-0.71074, 54.01115], [-0.71805, 54.01009], [-0.71969, 54.0123], [-0.73048, 54.01268], [-0.73058, 54.02171], [-0.73425, 54.03024], [-0.76633, 54.02367], [-0.77883, 54.02353], [-0.79918, 54.01904], [-0.80029, 54.01997], [-0.79898, 54.02407], [-0.82036, 54.02085], [-0.84315, 54.02168], [-0.84849, 54.01866], [-0.85972, 54.01636], [-0.86351, 54.01734], [-0.87844, 54.01717], [-0.87723, 54.01491], [-0.87766, 54.01354], [-0.88855, 54.0095], [-0.89087, 54.00308], [-0.89353, 53.99975], [-0.89741, 53.99851], [-0.89995, 53.99971], [-0.90748, 53.99753], [-0.91189, 53.99543], [-0.91193, 53.99288], [-0.91324, 53.99204], [-0.91524, 53.99313], [-0.92529, 53.9915], [-0.92031, 53.99008], [-0.92363, 53.98837], [-0.92782, 53.98401], [-0.92704, 53.9805], [-0.92877, 53.97608], [-0.93378, 53.97049], [-0.93341, 53.96734], [-0.92829, 53.9643], [-0.92386, 53.96335], [-0.9212, 53.9604], [-0.92215, 53.95663], [-0.92765, 53.95265], [-0.92495, 53.94874], [-0.92709, 53.94654], [-0.92652, 53.94466], [-0.92845, 53.94342], [-0.92785, 53.94189], [-0.92507, 53.94075], [-0.92618, 53.93694], [-0.92341, 53.93499], [-0.92883, 53.93], [-0.92324, 53.92524], [-0.92167, 53.92121], [-0.92336, 53.92032], [-0.92759, 53.92092], [-0.92835, 53.92044], [-0.92779, 53.91829], [-0.93167, 53.91735], [-0.93081, 53.91402], [-0.93482, 53.91357], [-0.93218, 53.91203], [-0.93204, 53.90874], [-0.93831, 53.90787], [-0.94104, 53.90414], [-0.93997, 53.90258], [-0.94028, 53.89862], [-0.94951, 53.89383], [-0.93413, 53.89024], [-0.92084, 53.8906], [-0.91967, 53.88928], [-0.92359, 53.88771], [-0.92293, 53.88535], [-0.92465, 53.88269], [-0.92268, 53.87945], [-0.92975, 53.87652], [-0.93817, 53.87573], [-0.94074, 53.87405], [-0.93905, 53.86772], [-0.9474, 53.86352], [-0.94805, 53.86108], [-0.94199, 53.85479], [-0.94631, 53.85116], [-0.94498, 53.8481], [-0.94702, 53.84363], [-0.94349, 53.83527], [-0.9403, 53.83268], [-0.94061, 53.8235], [-0.9332, 53.82067], [-0.92892, 53.82045], [-0.92422, 53.81604], [-0.92234, 53.817], [-0.92008, 53.81596], [-0.92759, 53.80986], [-0.92993, 53.805], [-0.93288, 53.80382], [-0.93447, 53.80184], [-0.93107, 53.79825], [-0.92804, 53.79707], [-0.93117, 53.79129], [-0.93349, 53.78996], [-0.93427, 53.78467], [-0.93662, 53.77933], [-0.93315, 53.77474], [-0.92943, 53.77376], [-0.92836, 53.76531], [-0.93008, 53.76307], [-0.93974, 53.75813], [-0.95157, 53.75375], [-0.96419, 53.75061], [-0.97612, 53.75093], [-0.98003, 53.75278], [-0.98497, 53.75706], [-0.98759, 53.76088], [-0.98542, 53.76372], [-0.98618, 53.76521], [-0.99774, 53.76557], [-1.00004, 53.76908], [-1.00168, 53.76967], [-1.01082, 53.76454], [-1.02104, 53.76061], [-1.02585, 53.76054], [-1.03328, 53.76551], [-1.0284, 53.77066], [-1.02157, 53.77084], [-1.02076, 53.77202], [-1.02133, 53.77357], [-1.02404, 53.77609], [-1.02678, 53.77749], [-1.03647, 53.77765], [-1.06441, 53.78529], [-1.06586, 53.78705], [-1.04937, 53.78885], [-1.04626, 53.79008], [-1.04572, 53.79142], [-1.04778, 53.79643], [-1.04754, 53.80385], [-1.04585, 53.8072], [-1.04269, 53.8093], [-1.04232, 53.81064], [-1.05116, 53.81138], [-1.0614, 53.81394], [-1.06983, 53.81879], [-1.07938, 53.81984], [-1.08386, 53.82255], [-1.08365, 53.82477], [-1.07529, 53.83285], [-1.07623, 53.83608], [-1.0836, 53.83487], [-1.08847, 53.83191], [-1.09871, 53.8367], [-1.1048, 53.83757], [-1.11814, 53.83693], [-1.12625, 53.83317], [-1.12774, 53.83377], [-1.13347, 53.84326], [-1.12707, 53.84351], [-1.12415, 53.84494], [-1.12356, 53.84977], [-1.11959, 53.85271], [-1.11786, 53.85623], [-1.11846, 53.85737], [-1.12389, 53.85937], [-1.12723, 53.86203], [-1.12706, 53.86454], [-1.11932, 53.86665], [-1.10635, 53.87505], [-1.10043, 53.87634], [-1.09971, 53.88034], [-1.09561, 53.88299], [-1.09557, 53.88659], [-1.09339, 53.88878], [-1.09346, 53.89095], [-1.09902, 53.89375], [-1.0936, 53.89012], [-1.09634, 53.88656], [-1.09633, 53.88288], [-1.10023, 53.88034], [-1.10063, 53.87675], [-1.10533, 53.87582], [-1.11292, 53.87183]]], [[[-0.34091, 54.24343], [-0.33716, 54.24276], [-0.33894, 54.24291], [-0.34091, 54.24343]]]]}}]}
